{"type":"FeatureCollection","features":[{"type":"Feature","properties":{"shapeName":"Japan","shapeISO":"JPN","shapeID":"22093344B50624940221487","shapeGroup":"JPN","shapeType":"ADM0"},"geometry":{"type":"MultiPolygon","coordinates":[[[[123.66169583700002,24.308345],[123.68039027200007,24.282578613000055],[123.72373527900027,24.299616946000185],[123.88057805400024,24.256238892000056],[123.939930204,24.364913818000105],[123.87277749700013,24.404037775000063],[123.81585221800003,24.390433333000146],[123.77026055800002,24.436898613000096],[123.74297639400004,24.39351113500004],[123.75157778200014,24.312692775000016],[123.70369917000005,24.350122775000102],[123.71023722400014,24.31487333300015],[123.68642693900017,24.332721667000044],[123.66169583700002,24.308345]]],[[[122.93391306,24.448717391000116],[123.01056859900018,24.436707009000088],[123.0436433110001,24.461109106000038],[122.96256989600022,24.472555811000063],[122.93391306,24.448717391000116]]],[[[124.06904653800007,24.43158098200007],[124.14334963700003,24.41329905000015],[124.11095339800022,24.365491676000147],[124.14539251600013,24.337106990999985],[124.23601924800005,24.34505935100003],[124.25241319100019,24.466773757],[124.3399655930001,24.60482735700009],[124.31177937700011,24.60973656800013],[124.27879686200004,24.507076570000038],[124.228307674,24.498704340000074],[124.22300460400004,24.455436892000023],[124.1399760700001,24.442405189000112],[124.11769105300004,24.482385903000193],[124.11965965000024,24.446678649000035],[124.06904653800007,24.43158098200007]]],[[[141.28552138800012,24.753515000000164],[141.34305221800014,24.774812225000062],[141.33561862900012,24.806315692000112],[141.28589527900021,24.788693333000026],[141.28552138800012,24.753515000000164]]],[[[125.13497241200014,24.82420827900006],[125.22185405000005,24.814212841000142],[125.1648465500001,24.865279306000048],[125.13497241200014,24.82420827900006]]],[[[125.25250832700021,24.756401108000034],[125.30879269800005,24.711578558999975],[125.46935027200016,24.718822225000167],[125.33520372200019,24.798918973000184],[125.26693209100006,24.914751644000148],[125.29576455300003,24.836553441000092],[125.25612596600013,24.803224694000164],[125.28514333300018,24.753165279000086],[125.25250832700021,24.756401108000034]]],[[[131.2134177820002,25.823889162],[131.2552693,25.81660425200016],[131.27218555100012,25.85700972100011],[131.22680225000022,25.870117027000163],[131.2134177820002,25.823889162]]],[[[127.63045850800006,26.206184532000066],[127.67657635500018,26.074603559000025],[127.8311255770002,26.166771721000146],[127.76063355400004,26.20234997300014],[127.81113361300004,26.298437108000087],[127.86208374800026,26.344670198000188],[127.9236111670001,26.302002946000073],[127.83070771700011,26.432130198000152],[127.86979693900014,26.45760889200011],[127.94901673900006,26.437548571000036],[127.99998722400005,26.511417495000046],[128.05311360600012,26.52044138700012],[128.04249917000016,26.559466387000157],[128.09480277600017,26.534186387000148],[128.1512547210002,26.56826055400012],[128.12348544700012,26.603210559000047],[128.15173416300001,26.59789222500018],[128.14827722400014,26.62923749500004],[128.2446086120001,26.63764582900012],[128.32715805400017,26.749305000000106],[128.3059077820002,26.8447272250001],[128.24958555100022,26.87090472100016],[128.23198333300002,26.797988613000086],[128.0986265890001,26.680606000000125],[128.12457678300018,26.661750973000096],[128.05132861200002,26.63474766700017],[127.98259360600002,26.649276667000038],[127.9977180740002,26.692338075000123],[127.87990032500011,26.709968707000144],[127.89486644600004,26.606602279000185],[127.97993277600017,26.58834491900018],[127.9799074450001,26.565526135000084],[127.84403138800019,26.503969441000038],[127.79905583700008,26.43740166700013],[127.71139547300004,26.440474441000163],[127.75792705600009,26.297745468000016],[127.66881914400005,26.250682279000046],[127.67175319100011,26.205362333000153],[127.63045850800006,26.206184532000066]]],[[[126.70792818500013,26.360930069000062],[126.81355527900007,26.29363082900005],[126.82618499400007,26.346025279000116],[126.78000435800004,26.390757027000063],[126.70792818500013,26.360930069000062]]],[[[142.18182205400012,27.094005064999976],[142.20835775600017,27.08328066700011],[142.1857441630002,27.040399],[142.22940367100023,27.035950252000077],[142.21945293700003,27.10048036000012],[142.18182205400012,27.094005064999976]]],[[[128.5200369390002,27.373113612999987],[128.57922027200004,27.331345],[128.71384778200002,27.43365749500009],[128.53276917000017,27.405105279000054],[128.5200369390002,27.373113612999987]]],[[[128.8788636060002,27.828339721000077],[128.90691805400013,27.764547225000115],[128.8808738910002,27.722593054000072],[128.92579639400014,27.665966387000026],[128.98701888500023,27.670064721000188],[129.03795527900013,27.768840279000074],[128.9687172240001,27.81758889200006],[128.97230639400016,27.89123805400004],[128.89978138800006,27.892951387000096],[128.8788636060002,27.828339721000077]]],[[[129.17563083000005,28.18783194600013],[129.21982444900016,28.139728054000102],[129.21507581300034,28.077297685000133],[129.2510572240002,28.111266108000052],[129.28046829800007,28.063206494000156],[129.29190778200018,28.09098444100016],[129.32281555100008,28.095515829000078],[129.31821972800026,28.062029162000044],[129.3425995650001,28.079531305000046],[129.34283027200013,28.11850277500008],[129.26028166000015,28.11706055900015],[129.27502194600027,28.142044162000047],[129.24523625200015,28.12211225200008],[129.27011555100012,28.167749162000064],[129.2411886120001,28.150607495000088],[129.20323888500025,28.181411667000134],[129.24002277600005,28.193876387000103],[129.17563083000005,28.18783194600013]]],[[[129.91317972800005,28.3118552790001],[129.94098472100018,28.275454162000187],[129.97278944200013,28.283710279],[130.03246111500005,28.370427495000115],[129.91317972800005,28.3118552790001]]],[[[129.13383693900016,28.25402555900007],[129.24715333300003,28.203608613000142],[129.254344553,28.233388721000154],[129.29413250300013,28.223099162000096],[129.26314111500005,28.18306138700018],[129.2832991700002,28.19744027900009],[129.2957047210001,28.148415000000114],[129.37824944700003,28.108847129000026],[129.33800347600027,28.17018302700012],[129.4010063940001,28.153846946000158],[129.40335749700023,28.1914000000001],[129.47714316300005,28.21078890600012],[129.40776055800006,28.250436387000093],[129.4427838910001,28.245670000000132],[129.461822503,28.29735861300003],[129.5378380540002,28.306494441000098],[129.61238421500002,28.40042234200007],[129.7101572240001,28.42184249500002],[129.71919666700012,28.474469721000048],[129.6762109140002,28.52709500200018],[129.6455386120001,28.500306387000137],[129.67418600500025,28.461590162000107],[129.6658498050001,28.438966892000167],[129.64799944600009,28.46825499800019],[129.65194917000008,28.421969721000096],[129.62068874200008,28.417829369000174],[129.6205383270002,28.45088805400013],[129.58962421500007,28.413718964000168],[129.62210583700005,28.478211946000158],[129.54426013900013,28.462566388000084],[129.4993657330001,28.3824570540001],[129.46371487700014,28.413823477],[129.44665430700002,28.380162293000183],[129.39547111500008,28.386436667000112],[129.40021778200003,28.35558694600013],[129.34518499400008,28.369593892000182],[129.21083250300012,28.306141387000025],[129.24927416300022,28.27390055900014],[129.29360927400023,28.28457141400014],[129.27430936400015,28.261433721000174],[129.13383693900016,28.25402555900007]]],[[[129.6840097280001,29.641758892000155],[129.70604444900016,29.60203638700017],[129.74282749700012,29.669683054000075],[129.6840097280001,29.641758892000155]]],[[[129.83407583700023,29.859998333000078],[129.8676098950001,29.817568575],[129.9180328330002,29.819779938000124],[129.8669966670002,29.883072495000192],[129.83407583700023,29.859998333000078]]],[[[130.84871944200006,30.464985829000113],[130.87241499400022,30.344717495000054],[130.96807958500005,30.372928613000113],[130.96266583700003,30.479718333000164],[131.03487832700023,30.566543054000192],[131.0785847210002,30.69647444100019],[131.0567044490001,30.83982749500018],[130.94005138800003,30.669158613000093],[130.94407332000014,30.567216793000057],[130.84871944200006,30.464985829000113]]],[[[130.3763613880002,30.38279666700015],[130.41316055800007,30.26605833300016],[130.49317888500013,30.2267952790001],[130.60310826600016,30.25075135300017],[130.6565674970002,30.30316972100013],[130.67154944200013,30.37179666700007],[130.49730169900033,30.469462286],[130.3763613880002,30.38279666700015]]],[[[130.14297888500005,30.489379441000153],[130.20975499400004,30.422076108000056],[130.26408972800004,30.434424721000084],[130.23518666700022,30.47010582900009],[130.14297888500005,30.489379441000153]]],[[[129.6581103630001,31.659207613000092],[129.7140701940001,31.621795751000093],[129.80197280200002,31.785395829000038],[129.6581103630001,31.659207613000092]]],[[[129.81682786800013,31.86108834900017],[129.83341174100008,31.837014431000114],[129.84207832700008,31.869831829000077],[129.8652129960003,31.859893640000166],[129.84114775600005,31.850301162000164],[129.87210297000001,31.80080433300003],[129.92527911400032,31.81940114600019],[129.93945902700023,31.868469775000165],[129.9048230410002,31.868604590000075],[129.91072466900005,31.842945054000097],[129.85206099900006,31.8830219460001],[129.81682786800013,31.86108834900017]]],[[[130.09073306100015,32.18064444100014],[130.15718389100005,32.089519721000045],[130.20977333300004,32.15512555900011],[130.1742680540001,32.229418054000064],[130.15532285300014,32.197115162000046],[130.1056783270002,32.21376055900015],[130.12187107700004,32.200364045000185],[130.09073306100015,32.18064444100014]]],[[[129.55233661500006,33.22131389200007],[129.61464826200017,33.22430389200002],[129.62723590800022,33.18722028000019],[129.63960893600006,33.22318350500018],[129.63534099900016,33.16701644100016],[129.6980880030003,33.142503224999984],[129.6572790790001,33.133206918999974],[129.66468567600032,33.10236799100011],[129.71172018200002,33.11605127000013],[129.71690024600014,33.16660910800016],[129.73141830100008,33.1241065320001],[129.79399036300015,33.13838574800013],[129.80105361200003,33.068184221000024],[129.83759543500003,33.05932189200013],[129.8206047340002,33.03794735100007],[129.8739208930001,33.06522081600008],[129.94517888500002,33.015844162000064],[129.93070162100003,32.92371787400003],[130.00495399500016,32.840473973000144],[129.88065725000013,32.882094027000164],[129.8479736710001,32.83178897300007],[129.7885819710001,32.86711595500003],[129.81090987700009,32.89504227499998],[129.7833216990001,32.94112425200018],[129.7984996370002,32.95450835999998],[129.80706693900015,32.91292772100013],[129.82274680900002,32.981744721000155],[129.7639083270002,33.02188194600012],[129.7387288850001,32.988610559000165],[129.76222194600018,33.048969441000054],[129.67752555100003,33.09941749500007],[129.6339266670002,32.925274162],[129.7016577170001,32.831082081000034],[129.77710847000014,32.81897574800013],[129.8045578340001,32.744064225000045],[129.82975613500003,32.74396591900012],[129.81755066800008,32.71833818100009],[129.87068643300017,32.748704387000146],[129.83712989000003,32.688842379000164],[129.79230027200003,32.69492774800011],[129.8170261350001,32.65466497300008],[129.7387963440001,32.56920950200015],[129.89578936400017,32.66189541400013],[129.95525511000005,32.764145468000095],[130.02402583700007,32.758367225000086],[130.0867072760002,32.79505100000017],[130.1790606740002,32.79455832400009],[130.20788489000017,32.75266998200004],[130.1713263680001,32.692215063000106],[130.12576105100004,32.68755306300005],[130.16810440400013,32.591255054000044],[130.35408617400026,32.68097855900015],[130.38100554400023,32.77967461700007],[130.3410965370001,32.855135432000054],[130.29719115400007,32.88137112600009],[130.19523684800015,32.84812118000002],[130.1529674320002,32.899125991],[130.22492128400006,32.960775640000065],[130.12605863800002,33.11718455900018],[130.24642972800007,33.202901198],[130.2880119460002,33.146822919000044],[130.37330946800012,33.14128708100009],[130.42538282700002,33.05285244100014],[130.39538019500003,33.002178414000184],[130.42968329400014,32.99586941400008],[130.43976105700006,32.92088988799998],[130.52307574600013,32.88096731100018],[130.52453645900005,32.851351000000136],[130.58447085600017,32.841926243000046],[130.6143835150002,32.79265800900015],[130.6070464200002,32.71298731500019],[130.45103518800022,32.62408068500014],[130.4669741890001,32.60464224300006],[130.66134543500004,32.63223058600005],[130.54383766500018,32.5382378920001],[130.57258987000012,32.50747491900006],[130.53115350200005,32.52003325200002],[130.56513894900013,32.505437613000026],[130.5424954990001,32.484543568000106],[130.5737586250001,32.439566748000175],[130.48861686100008,32.36638493700008],[130.50747260700007,32.35479105400009],[130.4651103110001,32.32645694600018],[130.49093400800007,32.29917689200005],[130.37764080400018,32.21170491000015],[130.34250044100008,32.12703494600015],[130.1754077820001,32.10459527900019],[130.20766968900023,32.05843361300009],[130.17313749700008,31.991907613000137],[130.20364150500018,31.983041919000016],[130.22423988300022,31.910720414000025],[130.16613527900017,31.79441130600003],[130.1860577560002,31.74919166700016],[130.2480234960002,31.731526167000084],[130.31560621300014,31.65859449500016],[130.33499861200016,31.57904805400011],[130.27149805400018,31.426814162000028],[130.22456939000006,31.39923338700015],[130.15977610900018,31.440186667000035],[130.10658832700017,31.412903892000145],[130.20969972800003,31.347527775000174],[130.17311675700012,31.32391866300003],[130.22355306100008,31.31090527900011],[130.19849444900012,31.291231108000034],[130.22945666700002,31.281409721000045],[130.21444472100018,31.249649441000088],[130.45953805400006,31.25127416200013],[130.51829007000026,31.165683483000066],[130.58698041800028,31.155017640000153],[130.63989221800023,31.18951110800009],[130.6677058370002,31.267309162000117],[130.5646733330001,31.322495000000117],[130.51365111500002,31.49078058600014],[130.61884622600007,31.65672872100015],[130.61967114100003,31.70557619800013],[130.6850318290002,31.73486772100017],[130.7965860310003,31.70084886500007],[130.8231687550001,31.659609667000097],[130.75057917000015,31.558105279000074],[130.7068767320003,31.55727920700008],[130.71728121900026,31.60251177500004],[130.67840457800014,31.629391721000104],[130.59107666700004,31.58888704499998],[130.63832535700033,31.545387694],[130.69831316500006,31.55569925200018],[130.69851221800013,31.461734440999976],[130.75586416300018,31.425334162000127],[130.80351898800006,31.332731622000097],[130.74437722400035,31.131739441000093],[130.65321138800005,31.070527495000192],[130.67821221800023,31.06183638700014],[130.660519442,30.994269721000023],[130.74779538300015,31.060915973000192],[130.96259500300005,31.137885347000065],[131.0170227760001,31.227960559000053],[131.1296313030001,31.276693271000056],[131.0769653570003,31.271382865000135],[131.10886778200017,31.33055],[131.01477137500012,31.360755307000034],[131.0409628660001,31.426499802000137],[131.10867888500024,31.47629446800005],[131.20658391700022,31.452810919000115],[131.25314821900008,31.381054462000122],[131.30934250300015,31.39071389200018],[131.3460606120002,31.36303988400016],[131.3323731260001,31.39536164900005],[131.38962666700002,31.485436667000045],[131.38213605700003,31.555608946000177],[131.46927472100003,31.64525694600013],[131.45032472100013,31.679703613000015],[131.4885450060001,31.785004712000102],[131.45442194600025,31.815763054000058],[131.46976311600008,31.912541267000165],[131.4544603370001,31.898469414000147],[131.57773985700032,32.27264658600012],[131.6435498310001,32.40775186500008],[131.6899263040001,32.42432827900012],[131.64184680900019,32.43916789200006],[131.65667355400012,32.47938374800003],[131.72874878100015,32.492106],[131.68453613500003,32.5091676130001],[131.68808119300024,32.55736825200006],[131.7556278610001,32.60258135600003],[131.77716555100017,32.67402777500007],[131.85726027200008,32.6957688920001],[131.88994840500004,32.80478659900018],[131.93615398200018,32.78451691100014],[132.00797444900013,32.82663138700019],[131.94239717300024,32.83677419800017],[132.01559596700008,32.89043181500011],[131.9768136060003,32.922692],[132.01012303400012,32.9057178330001],[132.02703499400002,32.935781108000185],[132.08532160800007,32.93287602700008],[132.0333347210002,32.95404138700019],[132.00344693900013,32.93236749500011],[132.00320749700006,32.958920829000135],[131.98203080400015,32.93930905400009],[131.89545630400005,32.98123808100013],[131.92973070000005,33.05259725200011],[132.01449596600014,33.05715030600004],[132.00120333300015,33.096428667],[131.9746158370001,33.06248877500008],[131.94087985700014,33.096857748000104],[131.9126174710001,33.06651774800008],[131.852548027,33.08871202200004],[131.9013336060002,33.13453916200018],[131.79836736700008,33.12715430600002],[131.90276965300006,33.26775373700019],[131.75943924800026,33.24022746800006],[131.691914773,33.2794277750001],[131.58926953300022,33.24564991900007],[131.51262323000014,33.267487955000036],[131.49895319100006,33.360351748000085],[131.59299002600017,33.34714302700013],[131.6500925030001,33.384137775000056],[131.6282602330001,33.41994668500013],[131.70305333300007,33.407100559000185],[131.73955555100008,33.466343613000106],[131.73383222500013,33.58257986100017],[131.66590115500003,33.66843235400006],[131.52257286400004,33.684350276000146],[131.4269109730003,33.56747047700003],[131.10007741900017,33.618090054000106],[130.98500847000014,33.785568694000176],[131.01176920900002,33.81959056799997],[130.95669189400007,33.829614162000155],[130.99345939000023,33.85102980199997],[131.02384603100006,33.9596365860001],[130.96300756200003,33.962196667000114],[130.89154700400013,33.887641694000024],[130.84820486400008,33.90545461300013],[130.85729464700012,33.92860241700015],[130.82476316500004,33.92051836000013],[130.7996511440001,33.87400039400006],[130.74112927400006,33.87488041400002],[130.81469902700007,33.90220958600014],[130.8074382120002,33.93157818500015],[130.68163544700008,33.937191333000044],[130.6316924380002,33.883671279000055],[130.52447507800025,33.88987400000019],[130.51800703000015,33.860571640000046],[130.4775139950002,33.85785538700014],[130.47037306100003,33.81524882900004],[130.4439596300001,33.81518660400013],[130.4710686640001,33.771196468000085],[130.45564089500033,33.733114],[130.31809101200008,33.66092927000011],[130.36029566800016,33.643869162000044],[130.42916905300012,33.68779202700006],[130.3932115560001,33.59730219800019],[130.2747742800002,33.582016108000175],[130.20772499400005,33.667039559000045],[130.15624583700014,33.60256577500019],[130.08713169200007,33.579968682000015],[130.13587472100016,33.566777306000176],[130.11572964800007,33.54664555900007],[130.16410622600006,33.56103400000012],[130.1538629700002,33.53703491900012],[130.0448432810001,33.496135198000104],[130.02239552500032,33.44666149500017],[129.93734208800015,33.4800800540001],[129.968803696,33.51295000000016],[129.93022900100016,33.55099258600012],[129.8743536060001,33.51596972100015],[129.8457707650001,33.55628388500014],[129.8573884440002,33.50565386500017],[129.82811000000015,33.51824861300008],[129.8317838910001,33.47485805400004],[129.85895749700012,33.45408305400008],[129.80644904900032,33.4858531320001],[129.78297180300012,33.45126831500016],[129.86895166000022,33.407714721],[129.82756949400016,33.337163667000084],[129.85362024600022,33.29158969400004],[129.8137010510003,33.30872833300009],[129.7888302460001,33.3715207570001],[129.70312072600007,33.347167784000135],[129.669275577,33.36302025200007],[129.67240363200017,33.39948697300014],[129.64449320400024,33.36422452300019],[129.5775992350001,33.38048975700019],[129.56218917,33.32453416200019],[129.62258858600012,33.30990572100018],[129.55233661500006,33.22131389200007]]],[[[130.20459688700032,32.451435243000105],[130.2461149290001,32.408419180000124],[130.2343794420001,32.38501610800017],[130.3521220560001,32.42010272100009],[130.3520164460001,32.37882864900007],[130.3804493770001,32.382385459000034],[130.4612784950001,32.52978231500015],[130.3946817640001,32.50001789200007],[130.38461726300022,32.52433806300013],[130.31977963700012,32.51921794600008],[130.20459688700032,32.451435243000105]]],[[[129.96719693900002,32.243123892000085],[129.99929617400016,32.253758730000186],[129.9905980010002,32.197104848000095],[130.02240856000003,32.18864723399997],[130.16653722400008,32.29611166700016],[130.13961058400014,32.297372108000104],[130.15753843100015,32.33518479300011],[130.17206306100002,32.31089389200014],[130.20443166000007,32.325181108000095],[130.22565478600018,32.36819172100019],[130.19329703000005,32.387873495000065],[130.21704138800033,32.424498054000026],[130.18901473400024,32.54877145900008],[130.04426277600032,32.51253972100005],[130.01260499400018,32.5297704140001],[130.04741671900024,32.49174646800009],[129.97686472100008,32.32918416200005],[130.07169111500002,32.300332775000186],[130.06108485100015,32.27598582000019],[130.02880639400007,32.29902333300004],[130.03249333300005,32.27446753200019],[130.0124027380001,32.29937149800014],[129.96719693900002,32.243123892000085]]],[[[130.39368339800023,32.58888811700007],[130.4195103630001,32.57505835100011],[130.40399734100004,32.55269949500001],[130.44630456500022,32.54821413500002],[130.45810645900008,32.614024721000135],[130.39368339800023,32.58888811700007]]],[[[128.59811277600022,32.613251387000105],[128.65622666700006,32.590422775000036],[128.73553944200012,32.60742361299998],[128.77173555100012,32.573904162000076],[128.79374557700032,32.59879831500007],[128.77010258100006,32.64475041400016],[128.89722741900005,32.650327638000135],[128.84898157300017,32.68890610900007],[128.85173610900006,32.75030916200012],[128.80360201000008,32.75185538700009],[128.82620447500017,32.760239937000165],[128.8106166670002,32.798036108000076],[128.7657200000001,32.76166333300017],[128.7987507780001,32.755232351000075],[128.7736619460003,32.73430391900001],[128.75776666700006,32.76906610800006],[128.69123725000009,32.73830635100006],[128.66454448200022,32.78496734100008],[128.6468841630001,32.69746527900003],[128.67815588200006,32.6726315360001],[128.6357666670001,32.62842916200009],[128.6676310250001,32.63002689200016],[128.64302447500017,32.60382961300019],[128.61152610900024,32.6469569460001],[128.59811277600022,32.613251387000105]]],[[[128.83234472100014,32.82944527900014],[128.86453360600012,32.76366610800005],[128.91038527900002,32.796751387000086],[128.86373301600008,32.84470140700017],[128.87628832700022,32.797668054000155],[128.86299805400006,32.83298666700006],[128.83234472100014,32.82944527900014]]],[[[128.8723697920001,32.861592483000095],[128.94484749700007,32.80177527900008],[128.94818000000032,32.881692774999976],[128.9431033200002,32.84927818900013],[128.9225888850001,32.8701177750001],[128.9331683270002,32.837893054],[128.90674444900003,32.87501666700007],[128.8723697920001,32.861592483000095]]],[[[128.96094161200006,32.89940021900014],[128.97644306100017,32.859536946000105],[129.02765277600008,32.84490305400004],[129.01591027200016,32.92364444100008],[128.977629728,32.91869944100006],[128.99887472100022,32.87828889200017],[128.96094161200006,32.89940021900014]]],[[[129.72882194600015,33.10011977500005],[129.76821189400016,33.05087402700008],[129.79292341100017,33.13834136000003],[129.72882194600015,33.10011977500005]]],[[[139.73839485100018,33.14194173900012],[139.79619518800018,33.06234186500018],[139.83260333300018,33.04527755900011],[139.85859609600027,33.07936328800014],[139.7720123350001,33.158855730000084],[139.73839485100018,33.14194173900012]]],[[[128.99169055800007,32.94384944100011],[129.03553449200012,32.94529076800012],[129.026214449,32.919529162],[129.06778792500006,32.90435136899998],[129.03798861200005,32.90850222500006],[129.06300251800008,32.816589872000065],[129.0660760830001,32.862517802000184],[129.10017749700012,32.85992305400009],[129.10226036300003,32.96221119800015],[129.14041888500014,32.93683444100003],[129.18228360600006,32.971418613000026],[129.16554972800031,33.00879305400019],[129.087075227,32.98420366700003],[129.11577283900033,33.16359364600004],[129.0880928150002,33.02460418000015],[129.04229944200006,33.0277177750001],[129.0658077170001,32.98098366700009],[128.99169055800007,32.94384944100011]]],[[[129.06977719800022,33.270943495000154],[129.11871507800015,33.244685365],[129.15687754900034,33.27191217100017],[129.12807344400017,33.303404766000085],[129.06977719800022,33.270943495000154]]],[[[129.34837291200006,33.18230514000015],[129.39342932800002,33.173197123000136],[129.46380972800011,33.214102775000015],[129.50473832700015,33.26947472100011],[129.47646208800018,33.288013297000134],[129.51001138800007,33.28765472100014],[129.5138463290001,33.33044610800016],[129.5701473800002,33.357100045000095],[129.55517693900015,33.409048054000095],[129.517998948,33.40016444200012],[129.55243503200018,33.3812742610001],[129.52262428000006,33.35380158600009],[129.51221,33.381736667000155],[129.4374705580002,33.347982775000105],[129.4471645530001,33.291798],[129.40368444900002,33.26537416200006],[129.43489542200007,33.235996198000066],[129.3822725030002,33.227631108000026],[129.39991620000012,33.18003091900016],[129.35667,33.20754277500009],[129.34837291200006,33.18230514000015]]],[[[129.64230674400017,33.767278306000094],[129.71615072600014,33.703868027000055],[129.73445080400006,33.73930377500017],[129.7882815910001,33.74193553600003],[129.79844944200022,33.76342672100003],[129.75793389100022,33.77568977499999],[129.79935795400024,33.788581330000056],[129.74863572000015,33.806670414000166],[129.76824944300017,33.84598729300012],[129.7042617510001,33.86351933300017],[129.67131810600006,33.83778977500009],[129.6886966410001,33.805469640000126],[129.6496369130001,33.80687782900003],[129.68624552500012,33.76038905400014],[129.64230674400017,33.767278306000094]]],[[[139.5765356410002,33.866440167000064],[139.63192055800005,33.87130305400018],[139.60026972800006,33.90103749500008],[139.5765356410002,33.866440167000064]]],[[[132.17267988300023,33.92366558600014],[132.20810533100018,33.856755532000136],[132.27931832700017,33.87085055900013],[132.2885558370001,33.90214500000013],[132.33482778200016,33.885390279000035],[132.33200610900008,33.857877495000025],[132.37211861200012,33.861957225000026],[132.37578666700006,33.91405361300019],[132.47205194600008,33.95017361300006],[132.41745758800016,33.953242333000105],[132.3296504870002,33.90190274800017],[132.2339891700001,33.967630000000156],[132.17267988300023,33.92366558600014]]],[[[132.5779105580001,33.96861027900013],[132.59947291800006,33.94291272100003],[132.64036793000014,33.95539050400015],[132.6525305580003,34.01350222499997],[132.5779105580001,33.96861027900013]]],[[[139.47287347600002,34.07657905400015],[139.52992616100016,34.04650558600002],[139.56566072600003,34.10208582900003],[139.49280072600016,34.11963189200003],[139.47287347600002,34.07657905400015]]],[[[133.01279988300018,34.110538],[133.11373819100015,34.1787225810001],[133.02982763900002,34.19311210800009],[133.01279988300018,34.110538]]],[[[132.4473233330001,34.108373054000026],[132.46046499400006,34.082308054000066],[132.53227972800005,34.103915279000034],[132.5555805580001,34.06863],[132.59301861200015,34.11520527900018],[132.53908972800014,34.10756277500019],[132.55779194600018,34.15060000000017],[132.52147097300008,34.15752094600009],[132.5590171980001,34.17322697300011],[132.5274521140002,34.200279892000026],[132.4932055510003,34.16250286500008],[132.50445527900013,34.13359666700006],[132.4473233330001,34.108373054000026]]],[[[133.05371116600008,34.21221453300012],[133.10959795100007,34.19095397300009],[133.14055461700025,34.22087127900011],[133.10781516200007,34.241666667000175],[133.05371116600008,34.21221453300012]]],[[[132.83818544700011,34.24215038700004],[132.8558680540001,34.20823249500012],[132.91426325600003,34.21149477500006],[132.94221444900006,34.27739386500002],[132.83818544700011,34.24215038700004]]],[[[132.37211693900008,34.25860361300016],[132.42879389100028,34.173101946000145],[132.4375816600001,34.19595055899998],[132.45718792500008,34.177862423000136],[132.42858833300033,34.12866736000018],[132.48916861200019,34.14130610800015],[132.47978180000007,34.29625087400018],[132.43414642000005,34.286028802000146],[132.47411852100004,34.208456333000186],[132.41981138800008,34.25799082900011],[132.37211693900008,34.25860361300016]]],[[[132.94192787300017,34.20351931500005],[133.050226887,34.214174054000125],[133.05749033700022,34.25796805400006],[133.02790569400008,34.294647946000055],[132.98635727600015,34.29114836000008],[132.96447144000012,34.26407780200003],[132.99126805400022,34.26078753200011],[132.9893869130001,34.223321892000115],[132.94192787300017,34.20351931500005]]],[[[132.26184724600012,34.25175135300003],[132.30295693900007,34.24374555900005],[132.34858555100016,34.29292],[132.33169705600017,34.311048973000084],[132.26184724600012,34.25175135300003]]],[[[133.06716389100018,34.26707764000008],[133.1121073930002,34.26606714000013],[133.14501655000004,34.3091056400001],[133.08905238700004,34.31292966700005],[133.06716389100018,34.26707764000008]]],[[[133.13445372200022,34.33557402700012],[133.19895927400023,34.2784174140001],[133.197263528,34.338037946000156],[133.16175622600008,34.359251559000086],[133.13445372200022,34.33557402700012]]],[[[132.01313722400016,33.34341082900005],[132.09455805400012,33.387593054000035],[132.12078693900003,33.38834861300012],[132.1037304790001,33.36180826700007],[132.15279791200032,33.37370653900007],[132.299753333,33.47468361300008],[132.31694610900024,33.45168527900017],[132.35340983100014,33.48873797300013],[132.4210168220003,33.46318491900007],[132.3791505060002,33.41625218900015],[132.38427809200005,33.36185841700012],[132.4131176520001,33.38450724300009],[132.41863713400005,33.35397572100004],[132.370173087,33.31933991900007],[132.52286736700012,33.315729748000024],[132.4677078960001,33.25432938100005],[132.54222911800014,33.271589973000175],[132.52037135900002,33.2502390300001],[132.557535733,33.22223827],[132.49996097300004,33.20436774800004],[132.5154304670001,33.17101736000018],[132.48674630400012,33.16443410800014],[132.45821615100022,33.21067927900009],[132.38975425700005,33.19999461700013],[132.46463080400008,33.172121225000126],[132.43255997400001,33.16940322000005],[132.44068306100007,33.13802764000013],[132.502832387,33.12974041400014],[132.44662413100014,33.12433599300016],[132.48413408600015,33.05656325200016],[132.40375084200025,33.06917414700007],[132.37858727600008,33.0228790270001],[132.41154030400014,33.02745031700016],[132.41043972800003,33.05639449500012],[132.48158367100007,33.04955338700006],[132.51122944200006,32.976744198],[132.55391089500006,32.960313613000096],[132.48435297000015,32.98041716199998],[132.50282114100014,32.955954532000135],[132.46126358000004,32.93995546800011],[132.4721850230003,32.90600407000005],[132.52221588800012,32.90891533300015],[132.49743005200003,32.9177370540001],[132.52718686800006,32.93276335400009],[132.51266574600027,32.950132586000166],[132.60230457800003,32.947636333000105],[132.5988084700001,32.912631],[132.70820166700003,32.92596306800016],[132.7209747210003,32.877579441000194],[132.65684583700022,32.85425861300007],[132.6740080540003,32.840432775000124],[132.6295023360001,32.76202513100009],[132.7108891700001,32.799100000000124],[132.80265117400018,32.74684741800007],[132.86173692600005,32.79064036900019],[132.8681094420001,32.765627221000045],[132.9384630610001,32.78652805399997],[132.96969508400014,32.77787261300017],[132.96565791800003,32.729520278999985],[133.02011691300004,32.72341136000017],[133.00270499400006,32.78714582900005],[132.95036092100008,32.82060330600012],[132.94937389100016,32.85747889200019],[133.00952645400014,32.881141964000165],[133.00821548700014,33.01122308100008],[133.0445430090001,33.03890231500003],[133.09469887800003,33.02368516700005],[133.17057360600006,33.15042277500015],[133.223654419,33.15501443300013],[133.2110105580001,33.184959162000155],[133.2643875000001,33.25731791400011],[133.23329159700006,33.329541809000034],[133.2896171210001,33.40423744100008],[133.3191432750001,33.35495050700001],[133.3456813490002,33.40090106300005],[133.45739878100005,33.41995746800018],[133.4172452790001,33.43951889200008],[133.3504286120001,33.41586082900005],[133.57488294400002,33.495499],[133.55261905300029,33.54080361300004],[133.5659119710001,33.50079282900009],[133.74571948100004,33.53702231500017],[133.93682009100007,33.48531870300019],[134.17601105900007,33.24356380800003],[134.21586016900017,33.40833319800009],[134.3119233330001,33.57719555900019],[134.3637047210001,33.58016110800014],[134.3320444100001,33.582566559000156],[134.39016437400016,33.62336437400006],[134.3624915050001,33.62805966700017],[134.5667676910001,33.732599171000174],[134.58197832700012,33.77165916200005],[134.750301271,33.833941987],[134.6287920100001,33.856948171],[134.71107946800032,33.930955919000155],[134.63988910500018,34.00733072100007],[134.60752053200008,33.98273133300006],[134.58823444900008,34.00925819800011],[134.64198289800026,34.18013679300003],[134.58537547300023,34.201749],[134.589160525,34.23943676200014],[134.4377991440001,34.207011721000185],[134.3784802240001,34.26167905500006],[134.26013771700013,34.28382955900014],[134.26619998800015,34.336265399000126],[134.2109062520001,34.369397892000165],[134.16431752300014,34.32681086500003],[134.13636018500029,34.400436890000094],[134.12234561600008,34.360670387000084],[134.0916404410001,34.38481836000011],[134.059752827,34.34774266700015],[133.92760725000016,34.38965382900005],[133.86544220500014,34.32730955900007],[133.8308335280003,34.3314625590001],[133.85366968900018,34.360533775000135],[133.81927949400006,34.353177027000186],[133.8292905320002,34.323473802000024],[133.6740009990001,34.222012432000156],[133.67092719500022,34.24707919800011],[133.55695035000008,34.261744541000155],[133.64862761300003,34.1932113420001],[133.63912725000012,34.09297933300007],[133.62783880700022,34.053108414000064],[133.51840513600018,33.9725638650001],[133.28061778200026,33.98966091900019],[133.25428075200023,33.95589682900004],[133.11899070000015,33.924499667000134],[132.9785899220002,34.11585713500011],[132.94186678300002,34.142886054000144],[132.89138839200007,34.11835791900006],[132.9269831910001,34.110116694000055],[132.92225038900006,34.066032054],[132.76823161400011,34.00061331900008],[132.755231051,33.911317748000045],[132.70944455300003,33.90685289200013],[132.6999194880002,33.76077242800005],[132.65936166000006,33.703523333000135],[132.47957579800016,33.61889362199997],[132.42429728900004,33.54919217100007],[132.25844776800022,33.47352716300014],[132.26043083000002,33.450141387000144],[132.15664548600034,33.440243888000055],[132.16573083000014,33.41133722500007],[132.12044306100017,33.42001082900009],[132.01313722400016,33.34341082900005]]],[[[133.169961284,34.387276919000044],[133.21206038900016,34.35617797300017],[133.23947319100012,34.39822635999997],[133.169961284,34.387276919000044]]],[[[130.86038766500008,34.110812387000124],[130.91089438400013,34.06173736000011],[130.91522936400008,33.93881186500005],[130.99663614700023,33.98961904300006],[131.03684763900003,34.05708210800009],[131.13343380000003,33.99046446800014],[131.1700761090001,33.996860306000144],[131.18052844400006,33.93040086500008],[131.22771199700026,33.964320053999984],[131.21532577200014,33.936720279000156],[131.23900533100016,33.95143425200018],[131.232551284,33.927081801999975],[131.2684294940001,33.92288769400005],[131.35586500400018,33.96649700900008],[131.38517083000022,34.05121953200012],[131.41704225000012,34.021346000000165],[131.39514422800016,33.98585880200011],[131.42034121900008,34.01558819799999],[131.44187236100026,33.982809306000036],[131.47203016900016,34.03695344100004],[131.54016549900007,33.99751330600003],[131.7523184180003,34.0707699190001],[131.74720888500008,34.04577027900018],[131.79691286600007,34.05914191900007],[131.78109542200013,34.027511279],[131.82748865100007,34.029442054000185],[131.7781060310001,33.97387361300008],[131.86417102500013,34.0070507480001],[131.96547389100022,33.91835919800019],[132.05698435800002,33.92032344100011],[132.1397693030001,33.831597775000034],[132.158151115,33.86001222500005],[132.118780506,33.95309836000018],[132.18774861200006,33.963427225000146],[132.22051632900013,34.04185889200011],[132.20013558200003,34.12036849500015],[132.24992811100003,34.12998897900019],[132.2474891700001,34.21501172100005],[132.22065968900006,34.232760000000155],[132.34701728900006,34.35653414400002],[132.52248399500002,34.36283219800015],[132.4914780800001,34.338698946000136],[132.51457177700001,34.25694566700014],[132.55852900100012,34.2382262970001],[132.53781185100013,34.194026930000064],[132.59562019500004,34.23114038700015],[132.64316686100017,34.20220825200005],[132.76058111500015,34.24046280200014],[132.75424105100012,34.282338081000034],[132.78858555100032,34.278125360000104],[132.79680586300015,34.31177169400007],[132.84676671900002,34.29177605400014],[132.95034726300003,34.340278829000056],[133.0402619570001,34.3316158020001],[133.07890097300003,34.34534077500018],[133.08487639400016,34.395648613000105],[133.2340562520002,34.41156094600018],[133.2512090140001,34.44142644100009],[133.27389190700023,34.418904081000164],[133.24450722400013,34.39109389200013],[133.3670766670001,34.36877666700019],[133.38678245200015,34.42057553600017],[133.4405255900001,34.43625591900019],[133.40952182900014,34.479884],[133.44271250300028,34.44516333299998],[133.4441090140001,34.48645147700012],[133.4563236450001,34.454538108],[133.4901750580001,34.45855332400009],[133.47375251100016,34.441340904000185],[133.52718208800002,34.453464964000034],[133.48678961100006,34.51419210800003],[133.54024722400027,34.461440189000086],[133.70533411200017,34.523063495000144],[133.70403005200012,34.4778266940001],[133.7411323870001,34.47009219800003],[133.71895888500012,34.496403225000165],[133.73961741900018,34.52517794600004],[133.78515871600018,34.436083252],[133.82243466900002,34.429726054000184],[133.8075439690001,34.45769233300018],[133.83647185500013,34.47457494600019],[133.9347849940002,34.45089777499999],[133.95947380000018,34.522715081000115],[134.00342477300023,34.511482559000115],[134.00117527900022,34.54552416200005],[134.0472016770001,34.57659492100004],[133.94605155600016,34.59899086500013],[134.12020610900004,34.588741946000084],[134.24500888500017,34.698466108000105],[134.19746727600022,34.70774793700008],[134.18601745800015,34.74315355900018],[134.24377243800006,34.71527795500015],[134.35771744500016,34.751025640000194],[134.4085268140003,34.726343144000055],[134.46432839200008,34.76415780200017],[134.46547959500003,34.807368924],[134.47384837000016,34.75555046600016],[134.5275426070002,34.782924495000145],[134.56993916300019,34.75797103500014],[134.6557219460002,34.788491387000136],[134.74625858600018,34.768819135000115],[134.826624981,34.70639728000015],[135.05165033700018,34.624437802000045],[135.18331108900009,34.64948927900008],[135.1901460050001,34.685519586000055],[135.33561245500027,34.726656531000174],[135.3712308300003,34.68077194600016],[135.40108588800013,34.69901322500016],[135.376181115,34.67656944099997],[135.4177680030001,34.688051946000144],[135.41431394300014,34.651667387000145],[135.45357425400005,34.62922455900008],[135.42554936400006,34.59334477500016],[135.46640358000002,34.58461527900016],[135.42081710800005,34.56967905400006],[135.40209608300017,34.59996227900007],[135.44215022000003,34.547854973000085],[135.3900893000001,34.50548316200013],[135.37829584000008,34.531922081],[135.35344418900024,34.450844198000084],[135.22287961100005,34.347280360000184],[135.07000953300007,34.29820508100016],[135.06143863800014,34.263434198000084],[135.12321600500002,34.241775721000124],[135.10039070000016,34.23561274800011],[135.1395287160002,34.22540900000013],[135.14022105100014,34.18792527900018],[135.20959591400003,34.14947269400011],[135.12423489000003,34.135272],[135.146044189,34.110825919000035],[135.11425452700018,34.11913289200015],[135.07853481900008,34.07348648000004],[135.17152360600016,34.02769305400005],[135.06768111500014,33.97687386500019],[135.11734861200011,33.96086491900002],[135.06466527900034,33.92713582900012],[135.0839997280002,33.91036389200019],[135.05830021500003,33.879886301000056],[135.14003817100013,33.885694468000054],[135.234812776,33.78151027900003],[135.4001573930003,33.72075310800011],[135.32955050600026,33.67063819800018],[135.39138455300008,33.643009721000055],[135.3925990790002,33.588562251999974],[135.44611004500018,33.5488798020001],[135.76605572000017,33.482014865],[135.76254542200002,33.433018748000165],[135.79810262600017,33.44551298700003],[135.79903744500018,33.499680559000126],[135.95959577200006,33.58197497300006],[135.9256819200001,33.60646622500019],[135.9537421140003,33.621909694000124],[135.93657350200033,33.64080058600018],[135.98605991600004,33.65505669000004],[135.97179160800022,33.67259308100017],[136.1008461350001,33.885394667000185],[136.15024345700022,33.899169887000085],[136.14991461700015,33.93110266700006],[136.17336271600004,33.911970224000015],[136.23120671200002,33.945887712000115],[136.19172313900015,33.97108644100007],[136.21372147900001,34.001063559000045],[136.27215072600006,33.972555802000045],[136.24205836600015,34.014837],[136.28161477300023,34.02242436000006],[136.20095230900006,34.07533044100012],[136.26802894900004,34.129051667000056],[136.2486777470001,34.09511170000019],[136.29810822600018,34.08683500000018],[136.3154956100003,34.115595879000125],[136.28400978000002,34.11808113500007],[136.27790350200019,34.16123527900004],[136.32178855400002,34.195987320000086],[136.45239861200025,34.219568],[136.43989775600016,34.247396468000034],[136.46615380000003,34.25708430600014],[136.46425744500016,34.231145802000185],[136.50814279500014,34.229170694000175],[136.4847101690002,34.23955725200017],[136.5192287970001,34.240301918000114],[136.5059515300003,34.27910294600014],[136.5482274190001,34.24986538700017],[136.54827389100024,34.281007468000155],[136.5907725840002,34.29461019600018],[136.5718074470002,34.27547143600003],[136.60510705600018,34.25848546800006],[136.67729633700003,34.31560773800004],[136.6368788850001,34.3088125590001],[136.67280337400018,34.32425009100007],[136.66177927400008,34.34570482900011],[136.69115243800002,34.34541153200007],[136.6833879200001,34.32355774400003],[136.72651577200008,34.34232025200009],[136.6874154100002,34.28421476900007],[136.76499793100015,34.2912560960001],[136.76238367100018,34.31593530600014],[136.79785814500008,34.29001316200009],[136.80556119300024,34.32793186500004],[136.86689549900007,34.286743054000056],[136.76517696000008,34.259714013],[136.84768842100016,34.246446446000164],[136.9001395580001,34.275794960000155],[136.877771219,34.33525800000018],[136.90930852300028,34.36509512400016],[136.8667974450001,34.34269161300017],[136.8125702460003,34.368151721000174],[136.91282688700005,34.37577583500007],[136.92486215600013,34.444163678000166],[136.8768678340001,34.42851164000007],[136.87709022900015,34.47460814300018],[136.83209652400012,34.50621158600018],[136.816129831,34.48440966700008],[136.64049888500006,34.592301973000076],[136.5272038390002,34.61095544100016],[136.5576575880001,34.67138425200005],[136.52157661500007,34.68953553200015],[136.53129919600008,34.74675241400013],[136.66687022000008,34.93700086500007],[136.63383883300003,34.94890833300013],[136.65038639400007,34.99135194600018],[136.74950275000015,35.036519180000084],[136.79386693300012,35.01444095300019],[136.78074658900005,35.03351117100016],[136.83008258100006,35.050249838000184],[136.8279906360001,35.08264233300008],[136.85547955900017,35.056587639999975],[136.8966004670001,35.08498369400007],[136.8201333850002,34.966436559000044],[136.8221162330001,34.883582394000086],[136.86653919600008,34.839131],[136.84032200600018,34.76460072500015],[136.85974883300003,34.73810383200009],[136.9773206440001,34.70360091100014],[136.91450169900008,34.77306397300015],[136.98103577200015,34.95684991900015],[136.9567435280003,34.83329002700009],[137.02552457800005,34.77765727900004],[137.1683944230001,34.787623333000056],[137.17794258100014,34.76566574800006],[137.2160721140001,34.823185721000186],[137.28714345000014,34.81252619800006],[137.33103955900003,34.780511946000104],[137.32031422800003,34.73283444100008],[137.35175552500027,34.727463865000175],[137.30834297,34.72498477500005],[137.32232216600005,34.69377555900007],[137.28615565500002,34.680209081000044],[137.28482700400014,34.730946775000064],[137.11929258100008,34.63431841400006],[137.06994946800012,34.66192364000011],[137.01764933900006,34.57835616199998],[137.57142399500003,34.68020666700005],[137.798635396,34.646340009000085],[137.9701703630002,34.66535586500015],[138.22635839200007,34.594988802000046],[138.19539574600014,34.66464810800011],[138.33765158200026,34.82836925200013],[138.32439644600004,34.872590865],[138.35582147900004,34.91373536000003],[138.51633933900007,34.98452016200014],[138.53313888500008,35.01459144100005],[138.50426910900023,35.01537426600004],[138.503735032,34.98567708100006],[138.4939951020001,35.03143583800011],[138.55823101200008,35.10239987400013],[138.6855961220001,35.144966748000115],[138.77217756200002,35.12717453200008],[138.9073183400002,35.048489721000124],[138.89137377400004,35.01701808100006],[138.788816719,35.03056038700004],[138.76217527900008,34.972035],[138.78980352800022,34.91018005400002],[138.75662500600015,34.885513198000126],[138.77688500600016,34.76027666700014],[138.7392449570002,34.69002037500002],[138.84330293800008,34.60105279000015],[138.94824885900005,34.67380976600003],[138.9872368450001,34.65814426800006],[138.99778770900014,34.74264165700009],[139.14076306100014,34.89088305399997],[139.14691176700012,34.954923153000095],[139.09371693900005,34.977973054000074],[139.10048138800016,35.044914721000055],[139.0693813360001,35.05403989200005],[139.1172490790001,35.147366],[139.16180725000004,35.14158150500009],[139.14777308700002,35.240778080999974],[139.33004294400007,35.31211887400019],[139.53951177700014,35.309384721000185],[139.627423334,35.215244901000176],[139.59906283600003,35.19594379200004],[139.63012516200013,35.163592387000165],[139.60774407300005,35.142801176000035],[139.67786016900016,35.13930380200003],[139.65624830100023,35.18452791900006],[139.7471610340001,35.25345490300009],[139.63114158200005,35.29990874800012],[139.6612245780001,35.32225953200009],[139.62233355400008,35.331944171000146],[139.65695333300005,35.3419348650001],[139.62934817100006,35.41318186500007],[139.669554553,35.40287694600016],[139.69061389100023,35.43922397300008],[139.63293795100003,35.46449853200011],[139.8260277820001,35.54157017100016],[139.74978422800007,35.56662580200003],[139.7672105580001,35.65812125200006],[139.79861858600032,35.62176233300005],[139.80917457800012,35.645681613000136],[139.8976114400001,35.61662338700012],[139.93950655000015,35.64048886500018],[139.93158153000002,35.674542559000145],[139.9845053050002,35.69090058600011],[139.98746119300017,35.654467532000126],[140.1176693640001,35.59655650500014],[140.08610985700034,35.56945],[140.12689486400006,35.56767330600019],[140.0616593640001,35.544189279000136],[140.0227414010003,35.46755105400007],[139.9031418520001,35.43130512699997],[139.89789972800008,35.358372802000076],[139.84589844400023,35.37547389200017],[139.85942910500023,35.34856313500012],[139.7839052920001,35.31283748600015],[139.85199199700003,35.28610710800018],[139.86875530500004,35.24254364000012],[139.81565769100018,35.172358946000145],[139.84248163400014,35.086276694000105],[139.81025066500024,35.03779984200014],[139.85838293100016,35.00048262200016],[139.75328694900008,34.96534943800009],[139.8369268350001,34.90295744100007],[139.92019391700012,34.90712366700018],[139.9651569130001,34.9428856670001],[139.98024822300022,35.010059414000125],[140.11958289200015,35.11487353200016],[140.3260635800001,35.13897074800019],[140.39407995700003,35.202884478000044],[140.3977654470002,35.4235217210001],[140.49494664100018,35.575961838000126],[140.66073238700028,35.69029027900012],[140.86990453800013,35.70829487100019],[140.7065249420001,35.92516044300004],[140.6772843320001,35.912237838000124],[140.68687688700004,35.88100880200011],[140.65236697800015,35.92661505400008],[140.693909533,35.928814919000104],[140.70089102500003,35.962545036000165],[140.59456477300012,36.11762765800006],[140.55839181600004,36.28547827900013],[140.62515466900004,36.36865768000018],[140.61137172500003,36.484481586000015],[140.71661730200015,36.66168738700014],[140.7484519200001,36.78436433300004],[140.8055666670001,36.83077880200017],[140.79307260700034,36.88163902700006],[140.92497228300022,36.93531972100004],[140.98282658300002,36.99565225300006],[141.04515879400014,37.48359409000011],[141.0110976520001,37.74024667600003],[140.9203205970001,37.93123324300012],[140.94142992200022,38.131770243],[141.0278945660001,38.26544937800014],[140.99891844400008,38.27310880200008],[141.08782905300006,38.29561222500013],[141.024658444,38.32011071200003],[141.08280608300004,38.380608108],[141.15864155600013,38.3535471080001],[141.2666025550002,38.41938669400014],[141.3623701040001,38.41233856800011],[141.37292944700016,38.383211353000036],[141.42979208800023,38.39966736000014],[141.45883491600011,38.37305712600016],[141.4157876390001,38.34604264000018],[141.46142164700007,38.35204762200016],[141.44947131000004,38.315253279000046],[141.5251057720002,38.2729255590001],[141.53451848100008,38.33940019700009],[141.4813174320002,38.375470468000174],[141.53900508400022,38.400916865],[141.4687555380001,38.3949131170001],[141.44809101200008,38.441281892],[141.51267533100008,38.45000434200017],[141.47630251600003,38.46391436],[141.49658508400023,38.49963884599998],[141.46945452700015,38.52114089200006],[141.53755323700022,38.49057605600012],[141.53250236100007,38.54901888000012],[141.4930276130001,38.53328483800016],[141.45856762600022,38.57846527000004],[141.52908997100008,38.63692655000017],[141.4431501040002,38.64333566700009],[141.44449252900017,38.673531027000024],[141.49369242800003,38.673596739000175],[141.5292697670002,38.71768830600013],[141.56197690900012,38.691364306000025],[141.56551008600013,38.73969359400007],[141.51280260700014,38.76746352300012],[141.6038601560001,38.82854325000005],[141.57500692600001,38.90617799100005],[141.60739345000025,38.879693946000145],[141.63830019500017,38.902308081000115],[141.67367263300002,38.85704019800016],[141.62770070000022,39.002799423],[141.6813796890001,38.99824617100006],[141.66597128400008,38.98146136000014],[141.703353579,38.93839819500016],[141.72842399500007,38.952273505000164],[141.69628557700014,38.97176644100006],[141.711804475,38.99707169400011],[141.74424883300003,38.992277414000114],[141.7099981450001,39.02569853200015],[141.7219773280002,39.06570183800011],[141.73344752300022,39.02159074800005],[141.84752210800002,39.02619868400012],[141.81550108900012,39.05920172100008],[141.87587736700004,39.06488533300018],[141.82343024600004,39.07522630600005],[141.81022330700011,39.11000446800006],[141.88080199700005,39.08393027900013],[141.92088676700018,39.10449252800015],[141.83549700400022,39.14463219800007],[141.92225905300006,39.177949640000065],[141.86682443600034,39.206349793000015],[141.97130075200016,39.24766789200004],[141.89030549900008,39.247442910000075],[141.8885778340001,39.273662775000105],[141.92906622600003,39.271741685000165],[141.89101263300017,39.308304135000014],[141.9704207750001,39.313140658000066],[141.99697652400005,39.350695721000136],[141.896933761,39.336356829000124],[141.95743569400008,39.355993333000015],[141.9378840600001,39.38427241400012],[141.97570900100004,39.42705238700012],[142.0360778600002,39.41849105400007],[142.0615247730001,39.47145217100007],[142.03595360600002,39.483444224000095],[141.98005197100008,39.438679126000125],[141.95375710800022,39.46662152300007],[142.01107406000006,39.476680505000104],[142.07248094700014,39.54796244100015],[142.02795312600006,39.574630180000156],[142.02568121000002,39.65551373500017],[141.94807276300014,39.58766390100004],[142.00460286600003,39.77581730400004],[141.93973247700023,39.91960419800006],[141.95608569400008,39.98372185200009],[141.8287475750003,40.08624784700004],[141.8766546600001,40.14379083400007],[141.79402861200015,40.19072094600017],[141.8336212690001,40.219252469000025],[141.81639077800014,40.2713247210001],[141.6826872370001,40.45172707200004],[141.5762179520001,40.542991955000105],[141.53456282700006,40.52718180199997],[141.48749116700003,40.5567876130001],[141.42456547300003,40.70680410800014],[141.3757068870001,40.935138946000166],[141.39109289200007,41.179387613000074],[141.46521215100017,41.42944950800006],[141.34477124500017,41.359489892],[141.26358238700004,41.35604600000016],[141.10723474700012,41.46573653200005],[141.00175669300006,41.48581164],[140.91725698300024,41.545911197000066],[140.89730384500012,41.526111908000075],[140.90909891100011,41.49561302700016],[140.80100766500004,41.32804658600003],[140.7641890530001,41.14564589200006],[140.81131316500023,41.12757669400003],[140.97998024600008,41.199077946000045],[141.05815958500034,41.183439802000066],[141.15440461700007,41.242872532000035],[141.1332303370002,41.24386266699997],[141.15912464300004,41.27778264000017],[141.1979844750001,41.272332532000064],[141.27905243800012,41.15846664000003],[141.21172461700007,40.952109721000056],[141.12872503200003,40.87219413500014],[140.97237894900013,40.93438083800015],[140.98443079100002,40.959545275000096],[140.9487093900002,40.99235477500014],[140.8788369780001,41.00985266700002],[140.837816803,40.95339222500013],[140.87015046700014,40.94597766700019],[140.8603988330001,40.88908464000008],[140.79501308700014,40.83592869400002],[140.73497756200027,40.82981650500011],[140.66398058400023,40.93610780200004],[140.63712461700004,41.18637827900011],[140.5502954220002,41.229524946000026],[140.46148847000018,41.18320458600016],[140.34427664100008,41.26293583800009],[140.3215907780001,41.14783110800005],[140.24867238700006,41.13376480200009],[140.31924457800005,41.09306938700007],[140.32411160800007,41.055718505000186],[140.25791352800002,40.81081158600017],[140.12274752300004,40.74258002700003],[140.05800610900008,40.769139919000054],[140.00063729600004,40.744970433000105],[139.92875131000017,40.6425439730001],[139.86078321700018,40.615791414],[139.94114175800007,40.55029744200016],[139.9363097800001,40.42820383800006],[140.02493442300022,40.35372041400018],[140.0007083060001,40.22017552500017],[140.0255668870002,40.21674450500012],[139.99419603100011,40.21362941400008],[139.9599447730002,40.09889980200012],[139.87273863800021,39.988770748000036],[139.80081652400008,39.95662355900015],[139.70020002100023,40.00669887800012],[139.69428093600015,39.97988787500003],[139.75541087800002,39.85685969900004],[139.9131459140002,39.901756252000155],[140.0211317510002,39.82789169400013],[140.05925256800015,39.720663252],[140.0450320880002,39.498699],[139.98575625200021,39.32201174800008],[139.9111220230002,39.26569166700017],[139.8727817770001,39.06960669400013],[139.77739116700002,38.83231761300016],[139.53975227900014,38.558084792000045],[139.4561527760003,38.39451719800013],[139.429487224,38.180025946000114],[139.36751503200003,38.09952327900015],[139.22735719900004,37.99896196900016],[139.2454809730002,37.972114892000036],[139.2149684320002,37.993225736000056],[139.06978378300028,37.95330917900009],[138.8418431650001,37.8166493600001],[138.7484019200001,37.60602258600005],[138.54378705600016,37.36848027900015],[138.23704849500007,37.17687844100004],[138.09563797700002,37.17265472100013],[137.9035152790002,37.05774653200007],[137.43552769100006,36.930949027000054],[137.39307568100003,36.80761764000016],[137.3205686120001,36.75841036000014],[137.11128749700015,36.76198913500019],[136.99110906600015,36.85372119800002],[137.05662566800004,36.96791400000012],[137.05770722400007,37.10883072100006],[136.98417669300022,37.04811027900013],[136.91640218600003,37.09133723900004],[136.8588317770002,37.07715586500012],[136.92430533100003,37.233826640000075],[136.9667892220001,37.234060108],[136.94602780800005,37.216317081],[137.01078341100003,37.18321455900008],[137.151975837,37.3070100270001],[137.23398902700012,37.29475560000003],[137.26769364500012,37.33670264000011],[137.23703699100008,37.38373536000017],[137.25081626500003,37.42447143200019],[137.36047035,37.450616018000176],[137.34622648500022,37.51552056800011],[137.26351350200002,37.53120691900011],[136.92593655000007,37.39530480200011],[136.86847180300003,37.407099887000015],[136.7563883920002,37.36487844100003],[136.66953488800016,37.15009773800011],[136.72727735700016,37.13394257700003],[136.72276928600013,37.053880850000155],[136.77020527900004,36.995770747999984],[136.72428406000006,36.789859333000095],[136.41251224400003,36.41586010800006],[136.21334255500017,36.273560585999974],[136.1229574450001,36.24964210799999],[136.12765219200014,36.19008758600006],[135.96057618700013,35.99037665000009],[135.9939876620001,35.88786994300017],[136.10013383900014,35.77858646800007],[136.07262727600016,35.66110680200018],[136.02546705600002,35.68053174800019],[136.04450324800007,35.70534837800005],[136.01662593900016,35.763960116000135],[135.95413312100004,35.72208541900011],[135.97426364500018,35.624712748000036],[135.8657882750001,35.60877902699997],[135.81454140200003,35.64253567800017],[135.8556226070001,35.6003535590001],[135.83838840500005,35.562923734000094],[135.80135588800022,35.57132044100007],[135.83338878100005,35.53560269400015],[135.71464438400005,35.569865441000104],[135.68862097300007,35.54624127900013],[135.71793817100001,35.51975436000015],[135.7647681450003,35.53548913500009],[135.71963138800004,35.485040387000026],[135.58101247700017,35.490053333],[135.62691099500012,35.488720206000096],[135.66093738600023,35.547617441000114],[135.53645352800004,35.4888823870001],[135.50791600500008,35.504565441000125],[135.51631133600006,35.551304640000126],[135.46875077800007,35.5303316400001],[135.48656576500014,35.55815547900005],[135.4518316990002,35.567722198000126],[135.46247389100017,35.60378972100017],[135.42678664100004,35.566513225],[135.34247936400016,35.55185150500017],[135.34350046700013,35.50409769400005],[135.3950962260002,35.516871387000094],[135.3982207260002,35.478885441000045],[135.34744406000004,35.494459171000074],[135.31671282700006,35.451154919000146],[135.331818418,35.51601780200008],[135.24132516200007,35.538607333000186],[135.27466343900005,35.560005497000134],[135.2562556680001,35.59830572100009],[135.18737089500007,35.54740474800019],[135.308850623,35.69357722300015],[135.22341649800012,35.779258],[134.92315939000002,35.6463285320001],[134.7637423960001,35.67477553400016],[134.6163001430001,35.639275333000114],[134.53878447500006,35.67039380200015],[134.19610306100003,35.53271202700017],[133.7808260050001,35.500589559000105],[133.5661985610002,35.52971391900007],[133.40204150500028,35.45278619800018],[133.25151836600003,35.51426130600004],[133.27205215000015,35.55221686300018],[133.24412360600002,35.550309171000094],[133.3235755510002,35.56970583800012],[133.1418052790002,35.56072250500017],[133.09036535400026,35.604143001000125],[133.09820631600007,35.58010281100019],[133.04721166000002,35.57693861300004],[133.02818666700034,35.53842917100019],[132.96801444900007,35.54347417100013],[132.97137027200006,35.51597305400014],[132.86534477000032,35.51325589200019],[132.72758180300002,35.469981527000186],[132.75340795700015,35.44756464000017],[132.62891194500003,35.435154100000034],[132.67474869000011,35.37235661300008],[132.6285205060002,35.287873000000104],[132.41764077800008,35.19070444100004],[132.3112842280001,35.05833333300012],[132.11246014300013,34.95314338700007],[132.05666713400024,34.872854414000074],[132.00664674400014,34.86674991199999],[131.9461523870001,34.79239602700011],[131.86477306100005,34.75550582900007],[131.8493059660001,34.71133441400008],[131.66788666700018,34.67599527900012],[131.65043083000012,34.64088749500013],[131.6038249940001,34.66206],[131.60304472100006,34.6230033330001],[131.55677182700003,34.61551523800006],[131.5397074970001,34.56391166700007],[131.45538802900035,34.52550258600007],[131.46187731500015,34.485850270000185],[131.39690333300007,34.460151802000155],[131.41253719800022,34.42515510800018],[131.33718831400006,34.41830386700002],[131.30634644600002,34.382826054000134],[131.2253566930001,34.39328830600016],[131.21293022000032,34.371228865000035],[131.19951302900017,34.39761713500013],[131.1556777820001,34.3724853870001],[131.13189907300023,34.41785237900018],[131.00975605700012,34.41322672100006],[130.97236416300018,34.442312225000194],[130.9344513430001,34.392435640000144],[131.0160268090001,34.40520380200019],[131.03591822300007,34.37133005400017],[130.92787717300007,34.341323441000156],[130.9008214260001,34.36284072300003],[130.86686136200012,34.28782902700016],[130.93276719800008,34.186428414000034],[130.86038766500008,34.110812387000124]]],[[[139.23989243800008,34.37064864000013],[139.27190050600007,34.3309899190001],[139.2909727240002,34.42422494600015],[139.23989243800008,34.37064864000013]]],[[[134.14073076600016,34.469591041],[134.2283864200001,34.48064974800013],[134.23224725000023,34.41482572100006],[134.3102115820002,34.47746266700011],[134.28067569400002,34.44390655900014],[134.31963199700022,34.45801113500005],[134.33779413700017,34.43290146800018],[134.36691433200008,34.56124522500011],[134.1719049940001,34.52758],[134.15595333300018,34.50490777500005],[134.18096408600002,34.487477279000075],[134.14073076600016,34.469591041]]],[[[134.6546046110002,34.29200805400012],[134.6581274030002,34.24046697800014],[134.72177550000015,34.254998570000055],[134.69979525300005,34.22227082900014],[134.7297302200002,34.18900074800007],[134.9514945510001,34.266241972000046],[134.89365664100023,34.3522410540001],[134.8952654730001,34.417452910000065],[135.02352644000007,34.58922408100011],[134.98407224400023,34.60357358600015],[134.8876508300001,34.531361541000024],[134.73009002600008,34.329972414],[134.68711010000004,34.33109194900004],[134.6546046110002,34.29200805400012]]],[[[129.1670789110001,34.10567280200007],[129.2159944230001,34.11189922500017],[129.21417579800004,34.08392782900006],[129.2824769260002,34.13078767600007],[129.3170288120001,34.26153682900002],[129.39316046700003,34.29676906300017],[129.35645952700008,34.298305514],[129.36432845700017,34.3385834230001],[129.39472871600003,34.33509330600009],[129.36474147900003,34.346367306000104],[129.39948620000007,34.413108685000054],[129.3517334500001,34.38598322500013],[129.3689272370002,34.439988270000185],[129.3857039300001,34.4277790810001],[129.36829507100003,34.452710477000096],[129.47354556400023,34.55552621600003],[129.47940955900003,34.595122009000136],[129.4331935020001,34.61727934200019],[129.4796493130001,34.61733318900008],[129.48268565500018,34.69449619800008],[129.41778474700004,34.695334162000165],[129.43479686100022,34.673193865000144],[129.40832766500023,34.678335000000175],[129.39651953300017,34.6395955860001],[129.31974024600015,34.647200189000046],[129.28573251600005,34.56276531500009],[129.34495031100016,34.532371775000115],[129.31824509700016,34.53698955000016],[129.27390539600026,34.46899130600008],[129.31197631600003,34.44994074800013],[129.27374141400003,34.440819486000066],[129.27652583700012,34.373139261],[129.2273238130001,34.362396613000044],[129.2873798380001,34.33918026100008],[129.2810268090002,34.383414342000094],[129.30912387800015,34.38601664000015],[129.30774675700002,34.336816485999975],[129.35469232200035,34.37498430599999],[129.3331383010002,34.31864411700019],[129.35493374800012,34.28674272100017],[129.30515665400003,34.27692449500012],[129.31007511000018,34.30823496400018],[129.26675398200007,34.328289658000074],[129.29094456500013,34.2777856670001],[129.25592775600012,34.311554054],[129.22236171200007,34.29052736],[129.20438819700018,34.33122978400013],[129.1670789110001,34.10567280200007]]],[[[139.3485966410002,34.75177425200013],[139.35804335900002,34.70126933300014],[139.44281489000002,34.681214000000125],[139.4233167440002,34.781056053999976],[139.36029788600013,34.79873980200017],[139.3485966410002,34.75177425200013]]],[[[133.06417894900017,36.100856252000085],[133.06867888500017,36.03476333300017],[133.096954449,36.072255],[133.15262778200008,36.07453861300013],[133.11893841800008,36.08151489200009],[133.13601274400003,36.10193674400017],[133.11255666700004,36.12012055900004],[133.06417894900017,36.100856252000085]]],[[[132.94580333300019,36.07978138700014],[132.99838610900008,36.03798917100005],[132.97920749700006,36.08873194600005],[133.00634464300003,36.10568933300004],[133.00751416300034,36.074195559000145],[133.04623527900014,36.06089805400012],[133.041098755,36.10968945000019],[133.09010743100032,36.13741999600006],[133.0145125030001,36.137616387000094],[132.94580333300019,36.07978138700014]]],[[[133.1770777820002,36.25750361300004],[133.1820773610002,36.21212375200008],[133.24486111500005,36.19015889200011],[133.24782318100017,36.15981198300017],[133.27990444900013,36.18815333300017],[133.34201228300014,36.17066294600011],[133.30638605700005,36.19904774800017],[133.3451648380003,36.22467886499999],[133.33946302200002,36.19600972100005],[133.36992575500005,36.20546851700004],[133.385745143,36.27028111300018],[133.27904972800002,36.34888777500015],[133.22464961500032,36.32887187800003],[133.1770777820002,36.25750361300004]]],[[[136.90157131600006,37.15225766000009],[136.94549863800034,37.091074468000045],[137.04107783400013,37.11713472100007],[137.05418988300005,37.14846850500004],[137.0343351560001,37.167712280000046],[137.00709038900004,37.136025306000136],[136.9676854600001,37.15531609100009],[136.9255866410001,37.13027083800006],[136.90157131600006,37.15225766000009]]],[[[138.20379305500012,37.8227243070001],[138.24435686100014,37.802389279000124],[138.34428817100002,37.82495227900006],[138.5001277560001,37.92036389200007],[138.57249799400017,38.07885277200006],[138.48141660200008,38.06231475700014],[138.4341622180002,38.088431333000074],[138.51481902700004,38.332134505000056],[138.4582047470002,38.32183177500008],[138.43752386500023,38.262344739000184],[138.3244131910003,38.19863425200003],[138.24184883300006,38.08665222500014],[138.22840718500004,37.978955933000066],[138.2532279960002,37.964194170000155],[138.29803630400022,38.007165838000105],[138.34369102500023,37.96545405400013],[138.2851499740002,37.92021453200016],[138.2692094160002,37.84783841400019],[138.20379305500012,37.8227243070001]]],[[[139.76568610900017,42.30620222500016],[139.7954558370002,42.230636946000175],[139.88064805400018,42.20778500000017],[139.92057000000023,42.13327389200009],[140.0237769390002,42.114415],[140.12434333300007,41.993635279000046],[140.12301904000003,41.82529305400004],[140.07115105700007,41.805478388000154],[140.00857944200015,41.69202444100017],[139.9852869440001,41.554537639000046],[140.03919653000014,41.447013104000064],[140.1992338910003,41.397897225000065],[140.26338907900004,41.48305269400004],[140.4292698280002,41.53499472599998],[140.441664112,41.680823081000085],[140.6014013880001,41.74211361300013],[140.6441490530001,41.81815872100009],[140.71582834000003,41.80668653200007],[140.7026543840003,41.740233694000096],[140.79051466900012,41.77317053200005],[140.96693778200006,41.71003855900011],[141.18660430600005,41.80223041400018],[141.1109691700001,41.873880558999986],[140.9611864200001,41.91524217100016],[140.76096888500012,42.115827775000184],[140.71213727600013,42.13778077500007],[140.5490211150002,42.113402919000066],[140.39411422800015,42.22040255900009],[140.2862709860002,42.25418831500008],[140.2762142800001,42.31342983800016],[140.3153530610001,42.41895889200015],[140.4755409730002,42.58893654100012],[140.7086261090002,42.58258638700016],[140.7800048900001,42.499232081000116],[140.87404900100012,42.458009000000175],[140.91705800300008,42.369165387000066],[141.00755019500014,42.34827386500007],[140.93035622600007,42.33536427900003],[141.00190378100012,42.30067256500001],[141.09762347600008,42.40010013500006],[141.33977919600022,42.537082613000166],[141.69540581100011,42.657396333000065],[141.63011231500002,42.623495221000155],[141.8181394940002,42.61297022500008],[141.90510700400012,42.576707586000055],[142.02734162100023,42.485067676000085],[142.19428610900013,42.447766387000115],[142.48453638800004,42.26992011300018],[142.81469111500007,42.14160805400007],[142.96131972800026,42.11985333300015],[143.13426000000015,42.02783833300009],[143.24936138800012,41.92443389200014],[143.26057805400023,42.00547805400015],[143.3122019460002,42.05449305400009],[143.31979077800008,42.29592702700012],[143.43192666700008,42.47682500000019],[143.63172917000009,42.66990972100018],[143.96813749700004,42.901867505000155],[144.27173233500002,43.003760712000144],[144.36261474700018,42.99454241400019],[144.36264014300014,42.970497027000135],[144.4502419160002,42.94343470300004],[144.78136168800006,42.93396967300009],[144.72192055800008,42.97973750500012],[144.79800075200012,43.058346171000096],[144.85431674400013,43.04873366700002],[144.83230055800016,43.01422213500001],[144.87575778200028,42.9862677750001],[144.97368888500023,42.981261387000075],[145.09856138800012,43.07706000000013],[145.17264834000002,43.07603417100006],[145.1155336060002,43.08427777500003],[145.14655583700005,43.14503],[145.41585277600018,43.18688527900008],[145.5199586120002,43.16482472100017],[145.56792204900023,43.28303883799998],[145.75451534800004,43.33676892500006],[145.817485486,43.38529104300005],[145.65054632000022,43.39167180600015],[145.49283778200004,43.26657750499999],[145.39687778200005,43.29102000000012],[145.2777111150001,43.402112505000105],[145.19360722400017,43.620586108],[145.33990508400007,43.584880306000116],[145.28488324900025,43.55108915400007],[145.33661944200003,43.553150838000136],[145.34351333300026,43.583961559000045],[145.14608250300012,43.64549833300009],[145.06906861200002,43.74795583800005],[145.09644917000014,43.89559750500007],[145.3672555830001,44.25857234400013],[145.34443179000016,44.33983303900004],[145.1919325030002,44.19534527900015],[144.79528917000005,43.93139250500019],[144.60378333300002,43.91763027900015],[144.34503778200008,43.96156305400012],[144.2550114400002,44.038418639999975],[144.24325693900005,44.11354777500014],[143.92886500600002,44.14702250500011],[143.5673897280002,44.24927610800012],[143.40880679600002,44.31078719800013],[143.34879719800006,44.37048984700016],[142.98976083000002,44.560611387000165],[142.65755917,44.842629721000094],[142.50437111500003,45.060071108000045],[142.16883704300017,45.344050144000164],[142.04202444900022,45.408907775000046],[141.93654211400008,45.522957360000134],[141.79787360600005,45.40705817100013],[141.68102972800023,45.403019171000096],[141.64315330700003,45.448968360000094],[141.6549091700001,45.351447225000186],[141.57206775600002,45.235400532000085],[141.58864,45.15082583800012],[141.73191444900021,44.89990333300011],[141.79231666700014,44.642943333],[141.74705944200002,44.432801108000035],[141.64735691300007,44.316073703000086],[141.64548891100003,43.941005468000014],[141.6310388590001,43.95536664000008],[141.56332944200017,43.861186946000146],[141.3875258370001,43.80670194600009],[141.32875250300015,43.72499722500015],[141.38563202300008,43.5913217210001],[141.35772138800007,43.517978891999974],[141.42748888500012,43.421478892000096],[141.42349917,43.32823694600012],[141.2940952270003,43.18546455900014],[141.1611284180002,43.14394858600008],[141.01365131000023,43.1900706940001],[141.00982600600003,43.239976624],[140.79037739300009,43.19483164000002],[140.49632147700004,43.37284604400003],[140.4268766670001,43.329068892],[140.34591725100017,43.33361242700016],[140.3245450060001,43.2209441710001],[140.5291211670003,43.02834646800011],[140.52060678300018,42.99076789200018],[140.39012444900004,42.922843892000174],[140.3044630610002,42.82870305400007],[140.30499666700007,42.77785333300011],[140.24630277600022,42.767968892000056],[140.18484972800002,42.82463917100017],[140.14426639400017,42.754555],[140.03831141400008,42.69039305400008],[139.86830250300022,42.66551610800019],[139.82223360600005,42.610639171000116],[139.84606221800004,42.43237472100003],[139.76568610900017,42.30620222500016]]],[[[139.40385427000012,42.17691375500016],[139.42078250300005,42.07173777500009],[139.45138396900018,42.052369586000054],[139.50494834000006,42.097821387000124],[139.55899455300028,42.25235983800002],[139.43552527600013,42.216100000000154],[139.40385427000012,42.17691375500016]]],[[[146.05853808000006,43.522064694],[146.1157699030001,43.458207266000045],[146.19351565500006,43.488635174000194],[146.2042010890001,43.533708973000046],[146.13498946800007,43.548903973000165],[146.05853808000006,43.522064694]]],[[[146.5856487550002,43.74423986500017],[146.62509391700019,43.75598358600007],[146.63956345700012,43.7035243200001],[146.67507124500014,43.705836721000026],[146.69555603100002,43.74593994600002],[146.73033844400004,43.73503044100005],[146.91969827500031,43.837486027000125],[146.824771219,43.890368694000074],[146.8229212450001,43.86684619800013],[146.72168352800009,43.84596530600015],[146.74810833300012,43.81561761300014],[146.58818814500012,43.80839908100006],[146.60760299600008,43.767464468000185],[146.5856487550002,43.74423986500017]]],[[[145.39865605700004,43.828082973000164],[145.4341865240001,43.71929813500009],[145.5503235540001,43.731002279000165],[145.5466389490001,43.65437069400008],[145.58511252900007,43.86237510800004],[145.64943394300008,43.90846553200009],[145.7819463940001,43.93288619800006],[145.82309041500002,44.02586836000006],[145.8781236450002,44.02094305400004],[145.8671929960002,44.06369350500006],[145.9213047730002,44.135513306000064],[146.04703147200007,44.18529679300008],[146.11023525300027,44.262438027000144],[146.29614686100012,44.27566961300016],[146.43150075200003,44.37591317099998],[146.49207978000004,44.35450058600014],[146.57741968900018,44.454941532000134],[146.33771953300015,44.4174245050001],[146.17110433200003,44.51726383800013],[146.12930075200006,44.50791586500003],[146.00594700400018,44.38032369400014],[145.98798535700007,44.31888661300013],[145.7441454220002,44.10448764000017],[145.7424495590003,44.05222374800002],[145.39865605700004,43.828082973000164]]],[[[141.12683138800003,45.18617472100004],[141.237804449,45.0969736130001],[141.330211673,45.14975305399997],[141.30297749700003,45.21511277500019],[141.19914972800018,45.25972861300011],[141.12683138800003,45.18617472100004]]],[[[140.965913891,45.45725],[141.01463306100015,45.284078892000025],[141.0435539690002,45.27410713500018],[141.06739503200004,45.42397450500005],[141.03389610900024,45.46080805400004],[141.01268581100032,45.43303891900007],[140.965913891,45.45725]]],[[[146.858126394,44.45332277500006],[146.95458907900013,44.42634789200008],[147.0743396890001,44.555723000000114],[147.20712538300006,44.568629892000104],[147.3349906100002,44.71420691900016],[147.5968936710001,44.85330261300015],[147.6515847730002,44.919115198000156],[147.61097169900017,44.94286564000009],[147.65650128400011,44.995279919000154],[147.72624917000007,45.002811414000064],[147.78551741900003,44.947567505],[147.90442732800022,44.96097825200019],[148.09964544700017,45.11264977500002],[148.30172586300023,45.21487374800006],[148.49438391700016,45.2561772250001],[148.63898605700012,45.33533386500011],[148.84182372200007,45.33621217100011],[148.8765642540002,45.394356667000125],[148.8268119710001,45.449119892],[148.88632233500005,45.48189194600019],[148.88955897500023,45.517838559000154],[148.7836928920001,45.55682258600012],[148.6512132810003,45.53729777500013],[148.48628046700003,45.42063400000012],[148.418101115,45.32721519800009],[148.16637588800006,45.25858825199998],[148.0169021920001,45.279362748000096],[147.96476949400017,45.420183721000114],[147.90375228300002,45.42987561300015],[147.84890138800017,45.365771559],[147.86976791200004,45.22415655900011],[147.73480988300003,45.19369986500004],[147.69752403400003,45.1037782520001],[147.6507436060001,45.07863502700013],[147.50475464300007,45.11762819800009],[147.5346816340001,45.07062013500007],[147.51724620000005,44.997393171000056],[147.265580117,44.86807166699998],[147.24226902700002,44.80812708100012],[147.1017437480001,44.81789625200008],[147.12576522700022,44.770445613],[147.19460099900016,44.76131102700003],[147.18593778200022,44.69715241400007],[147.0965009470002,44.6385557210001],[147.00643189400012,44.659254197999985],[147.03354732800017,44.61636602700014],[146.99301953300017,44.57543472100008],[146.94808341100008,44.63144672100003],[146.95231953300004,44.54978422500017],[146.858126394,44.45332277500006]]]]}}]}
