{"type":"FeatureCollection","features":[{"type":"Feature","properties":{"shapeName":"The Swiss Confederation","shapeISO":"CHE","shapeID":"87024499B82891532811338","shapeGroup":"CHE","shapeType":"ADM0"},"geometry":{"type":"Polygon","coordinates":[[[8.568881,47.807227],[8.563808,47.805395],[8.561996,47.792595],[8.574957,47.789624],[8.57733,47.781666],[8.562889,47.777893],[8.563313,47.780571],[8.552919,47.784632],[8.526477,47.778009],[8.520205,47.770522],[8.510313,47.776197],[8.495366,47.77074],[8.489019,47.773208],[8.473146,47.764068],[8.466521,47.753611],[8.456783,47.749567],[8.455848,47.742797],[8.450113,47.738953],[8.45263,47.730845],[8.457125,47.730163],[8.454608,47.727114],[8.454944,47.722453],[8.44534,47.723067],[8.440187,47.719745],[8.441666,47.717894],[8.436471,47.718195],[8.426096,47.711294],[8.417123,47.710183],[8.404644,47.698033],[8.411981,47.694406],[8.420789,47.68387],[8.416204,47.679786],[8.408525,47.678568],[8.405596,47.674185],[8.412212,47.666329],[8.423645,47.666862],[8.445119,47.653862],[8.453666,47.65477],[8.457288,47.652736],[8.465972,47.657248],[8.463728,47.648464],[8.46711,47.641541],[8.473503,47.638405],[8.478049,47.639767],[8.471037,47.642352],[8.477716,47.644655],[8.473076,47.648274],[8.476425,47.650102],[8.480395,47.649238],[8.482804,47.644095],[8.487423,47.645069],[8.4924,47.642093],[8.494355,47.642069],[8.49333,47.646947],[8.531793,47.645748],[8.534621,47.649694],[8.526942,47.660455],[8.533454,47.663121],[8.534469,47.659355],[8.541645,47.656793],[8.53887,47.662768],[8.53996,47.665076],[8.56089,47.67032],[8.563717,47.67004],[8.564754,47.665264],[8.577673,47.661517],[8.593308,47.666794],[8.597975,47.672724],[8.606613,47.672147],[8.60809,47.664146],[8.627295,47.654074],[8.628562,47.648762],[8.62335,47.64092],[8.615558,47.637707],[8.603384,47.638834],[8.604166,47.641268],[8.613959,47.644373],[8.613197,47.648909],[8.608505,47.652197],[8.605107,47.651959],[8.601989,47.646262],[8.596043,47.643279],[8.597104,47.630054],[8.605005,47.613504],[8.595727,47.605611],[8.592741,47.606157],[8.590182,47.601209],[8.584316,47.599787],[8.582576,47.59614],[8.566642,47.597147],[8.562222,47.600287],[8.566415,47.606092],[8.566393,47.609858],[8.574524,47.611966],[8.571231,47.612484],[8.569338,47.6172],[8.562933,47.6167],[8.557899,47.624454],[8.538697,47.626291],[8.538951,47.630962],[8.515661,47.63379],[8.515869,47.628505],[8.512807,47.625308],[8.515139,47.623384],[8.507441,47.623819],[8.508346,47.617519],[8.493328,47.614436],[8.479209,47.615209],[8.475288,47.607935],[8.470317,47.608553],[8.471391,47.606592],[8.468546,47.603859],[8.456692,47.602315],[8.457039,47.597379],[8.461235,47.592666],[8.460539,47.588377],[8.46482,47.588008],[8.466868,47.584248],[8.488706,47.587829],[8.494748,47.581033],[8.485686,47.577228],[8.477044,47.577907],[8.464897,47.572341],[8.428629,47.566934],[8.39829,47.577178],[8.390335,47.573734],[8.382636,47.565723],[8.358739,47.570132],[8.329202,47.571046],[8.297757,47.589237],[8.295335,47.594559],[8.297736,47.605188],[8.292463,47.608885],[8.279264,47.611705],[8.2649,47.609306],[8.26062,47.614631],[8.257286,47.615294],[8.23792,47.61269],[8.226503,47.605043],[8.219726,47.617585],[8.20561,47.621054],[8.196947,47.618416],[8.185396,47.605543],[8.175189,47.601958],[8.164936,47.594188],[8.149137,47.595832],[8.138203,47.590115],[8.135889,47.583727],[8.109811,47.582552],[8.103146,47.576318],[8.099498,47.562829],[8.089307,47.557714],[8.081337,47.558058],[8.067266,47.564486],[8.059382,47.563539],[8.047321,47.555713],[8.02135,47.550349],[8.000712,47.556318],[7.976574,47.555286],[7.959885,47.558132],[7.952646,47.554737],[7.949325,47.546227],[7.944134,47.543887],[7.918551,47.547364],[7.911962,47.550778],[7.90723,47.559863],[7.911442,47.566603],[7.910619,47.571383],[7.903095,47.580816],[7.892073,47.587429],[7.868119,47.588742],[7.842623,47.582143],[7.823087,47.587989],[7.818214,47.586232],[7.81147,47.569193],[7.801379,47.563673],[7.795688,47.55738],[7.758419,47.548471],[7.752234,47.54481],[7.719601,47.541786],[7.697106,47.532967],[7.682861,47.532604],[7.668035,47.535926],[7.661092,47.54505],[7.649945,47.547861],[7.640716,47.557515],[7.633944,47.561204],[7.636126,47.563923],[7.648284,47.559936],[7.664234,47.565404],[7.677324,47.56375],[7.675152,47.565427],[7.683509,47.571258],[7.685928,47.565615],[7.689662,47.571403],[7.683678,47.57391],[7.68086,47.582689],[7.672077,47.585245],[7.671749,47.587276],[7.693801,47.600775],[7.683017,47.598499],[7.675179,47.591988],[7.645677,47.596961],[7.64179,47.594197],[7.643247,47.591346],[7.619142,47.576875],[7.604888,47.577879],[7.604822,47.584935],[7.589044,47.589902],[7.584659,47.575521],[7.56649,47.577669],[7.556895,47.572466],[7.559335,47.569389],[7.557299,47.565031],[7.527323,47.552784],[7.516764,47.545414],[7.509346,47.545839],[7.49918,47.540118],[7.498044,47.536158],[7.502304,47.52841],[7.510757,47.528995],[7.519359,47.534723],[7.524404,47.531865],[7.526784,47.532881],[7.53123,47.528164],[7.522191,47.514201],[7.517464,47.517286],[7.502283,47.514912],[7.497875,47.521253],[7.499087,47.516283],[7.507916,47.510817],[7.510305,47.505993],[7.50876,47.502347],[7.511072,47.497032],[7.501143,47.49352],[7.502454,47.490774],[7.493799,47.488416],[7.487282,47.482018],[7.472012,47.480388],[7.462388,47.489057],[7.456409,47.488505],[7.434988,47.498106],[7.433146,47.497173],[7.420821,47.480371],[7.429396,47.482945],[7.443615,47.478519],[7.448407,47.473792],[7.450177,47.475335],[7.455741,47.473381],[7.455829,47.470705],[7.44577,47.461977],[7.430034,47.459496],[7.427757,47.457302],[7.428801,47.453884],[7.422422,47.450721],[7.424456,47.449919],[7.420556,47.445575],[7.403209,47.438682],[7.403052,47.435485],[7.393921,47.435171],[7.385585,47.431863],[7.354797,47.433931],[7.344842,47.436144],[7.338998,47.441122],[7.330309,47.441785],[7.323451,47.438669],[7.3024,47.438649],[7.292656,47.433365],[7.281906,47.434812],[7.269701,47.427001],[7.254962,47.424388],[7.246551,47.420341],[7.245779,47.426532],[7.239025,47.42852],[7.23888,47.433292],[7.233445,47.438624],[7.222925,47.439824],[7.206688,47.43485],[7.195796,47.435424],[7.192519,47.439006],[7.170203,47.442983],[7.178334,47.458551],[7.177496,47.468054],[7.190861,47.48851],[7.202986,47.491399],[7.200968,47.494276],[7.162279,47.490004],[7.150421,47.497318],[7.128002,47.503879],[7.112525,47.495109],[7.094228,47.495441],[7.074852,47.488189],[7.072068,47.492376],[7.052429,47.495113],[7.044534,47.498447],[7.036941,47.497514],[7.021509,47.504468],[7.00038,47.499724],[6.986025,47.493339],[6.982969,47.494552],[6.988649,47.486898],[6.98644,47.476331],[6.992991,47.471132],[6.991704,47.4664],[7.000484,47.467202],[7.001286,47.461921],[6.997889,47.459846],[6.99754,47.456429],[7.002181,47.454164],[6.990192,47.44798],[6.980981,47.449234],[6.970286,47.44711],[6.963711,47.435794],[6.940303,47.433323],[6.941547,47.415704],[6.938433,47.406081],[6.920631,47.405074],[6.919707,47.40663],[6.913251,47.404576],[6.917771,47.403184],[6.915489,47.397157],[6.90931,47.396096],[6.913506,47.388087],[6.905121,47.382525],[6.895095,47.381707],[6.895815,47.379898],[6.883599,47.372865],[6.884923,47.36743],[6.879363,47.35778],[6.879292,47.352576],[6.886964,47.353291],[6.895652,47.358668],[6.90277,47.359566],[6.924077,47.35518],[6.933111,47.358448],[6.974588,47.360144],[6.984283,47.363667],[6.996379,47.363613],[7.015568,47.372919],[7.020139,47.370338],[7.034079,47.369667],[7.03484,47.363347],[7.043127,47.364269],[7.049936,47.36143],[7.052818,47.351547],[7.049883,47.34771],[7.062389,47.344105],[7.0598,47.339736],[7.052933,47.336688],[7.056961,47.334403],[7.045644,47.326495],[7.033848,47.328311],[7.00999,47.324526],[7.009297,47.320309],[7.013281,47.319891],[7.015768,47.313315],[7.009356,47.302343],[7.003713,47.301581],[6.996261,47.295786],[6.976581,47.296348],[6.973685,47.291317],[6.950886,47.291985],[6.941017,47.28669],[6.952009,47.269901],[6.950114,47.266054],[6.951597,47.261535],[6.946603,47.254132],[6.947349,47.250715],[6.955666,47.243103],[6.943128,47.23791],[6.940835,47.231535],[6.927927,47.228666],[6.923822,47.222099],[6.909961,47.218192],[6.907131,47.21469],[6.880698,47.20055],[6.874057,47.190991],[6.873873,47.185307],[6.867277,47.185343],[6.864007,47.180426],[6.841062,47.171422],[6.844451,47.166783],[6.858401,47.165391],[6.849901,47.156439],[6.840386,47.153896],[6.839316,47.149976],[6.828353,47.146493],[6.815714,47.135921],[6.808077,47.135369],[6.806045,47.130712],[6.775969,47.121364],[6.764713,47.120384],[6.746843,47.10999],[6.740543,47.109623],[6.741462,47.104209],[6.746728,47.097816],[6.74157,47.090927],[6.731991,47.089465],[6.725874,47.091939],[6.702728,47.082139],[6.707536,47.079454],[6.705209,47.076389],[6.706239,47.074205],[6.691506,47.066674],[6.700386,47.05934],[6.708805,47.058062],[6.711162,47.054129],[6.71917,47.051183],[6.69654,47.037307],[6.677219,47.035305],[6.659196,47.027343],[6.640355,47.002812],[6.617973,46.991647],[6.593111,46.991804],[6.573178,46.982417],[6.518893,46.970978],[6.504806,46.965694],[6.49592,46.973938],[6.477747,46.961777],[6.453533,46.938741],[6.432689,46.928683],[6.435884,46.921638],[6.457924,46.900785],[6.464618,46.890356],[6.460032,46.851303],[6.44316,46.832712],[6.439511,46.823977],[6.440834,46.81582],[6.43104,46.812357],[6.434787,46.801488],[6.458411,46.788774],[6.451668,46.778631],[6.452245,46.774217],[6.438442,46.766678],[6.439371,46.762754],[6.430318,46.756795],[6.395198,46.74847],[6.388399,46.743295],[6.392021,46.73897],[6.384916,46.731376],[6.367603,46.729141],[6.371301,46.729183],[6.371698,46.724121],[6.364452,46.721734],[6.360162,46.723086],[6.352143,46.714858],[6.341231,46.71012],[6.325112,46.706474],[6.297061,46.694281],[6.281993,46.690674],[6.26913,46.68255],[6.270453,46.6791],[6.267255,46.67621],[6.232758,46.65446],[6.227569,46.648191],[6.21902,46.645087],[6.207405,46.635621],[6.1995,46.634526],[6.196303,46.628248],[6.179498,46.620103],[6.178967,46.615752],[6.161198,46.609964],[6.153689,46.603651],[6.139598,46.597623],[6.110472,46.576439],[6.156661,46.545298],[6.148581,46.539365],[6.153471,46.53679],[6.143684,46.527737],[6.137957,46.530994],[6.112603,46.509565],[6.096901,46.481299],[6.072793,46.465444],[6.07345,46.459881],[6.076913,46.457596],[6.074413,46.453508],[6.084388,46.447445],[6.086406,46.443882],[6.085619,46.440833],[6.074569,46.432174],[6.073891,46.428362],[6.063857,46.41639],[6.09763,46.409037],[6.105681,46.399418],[6.113819,46.396826],[6.11298,46.399941],[6.134696,46.388704],[6.149672,46.377524],[6.159328,46.379667],[6.161131,46.374894],[6.169927,46.366083],[6.161468,46.359916],[6.157698,46.349907],[6.151493,46.347383],[6.149407,46.342707],[6.13792,46.33873],[6.139233,46.333401],[6.136242,46.332099],[6.136097,46.328465],[6.119824,46.312564],[6.120766,46.306814],[6.11877,46.302804],[6.121791,46.299113],[6.118561,46.295909],[6.119637,46.294317],[6.114075,46.294716],[6.102389,46.28494],[6.105083,46.282961],[6.103265,46.278665],[6.113514,46.272552],[6.109899,46.270575],[6.120079,46.264647],[6.118082,46.263448],[6.122535,46.258178],[6.120829,46.254556],[6.124457,46.252593],[6.120786,46.248015],[6.108827,46.23987],[6.106853,46.241171],[6.10145,46.237647],[6.088056,46.247126],[6.073536,46.243712],[6.073024,46.241349],[6.067286,46.241782],[6.063345,46.245801],[6.055887,46.241658],[6.046111,46.231394],[6.033652,46.238551],[6.025495,46.233225],[6.012956,46.231049],[6.01334,46.229053],[6.009561,46.228995],[6.006571,46.226541],[6.007188,46.223881],[6.001539,46.2205],[5.992944,46.22296],[5.990187,46.221719],[5.993551,46.217898],[5.992775,46.215221],[5.979172,46.217252],[5.973357,46.213716],[5.969254,46.206627],[5.973429,46.202575],[5.963727,46.197006],[5.990298,46.187804],[5.994911,46.181839],[5.990409,46.177598],[5.988037,46.170774],[5.981934,46.173216],[5.980098,46.166279],[5.964295,46.144767],[5.966256,46.137888],[5.955901,46.132356],[5.956846,46.128757],[5.976711,46.133155],[5.981928,46.137408],[5.983503,46.142989],[5.994101,46.144569],[6.003229,46.141777],[6.015012,46.143076],[6.028452,46.140437],[6.033009,46.138708],[6.035393,46.134333],[6.039297,46.139639],[6.047614,46.142201],[6.052263,46.151343],[6.074914,46.148842],[6.091811,46.151946],[6.098493,46.14382],[6.128147,46.140318],[6.13644,46.141589],[6.141893,46.147225],[6.144882,46.14495],[6.148641,46.150089],[6.174222,46.157806],[6.185614,46.164146],[6.188776,46.166388],[6.187057,46.180364],[6.194981,46.184206],[6.197851,46.183401],[6.20519,46.191763],[6.212269,46.192787],[6.21831,46.198687],[6.222238,46.198966],[6.221938,46.200666],[6.234014,46.206423],[6.24955,46.20499],[6.254101,46.209241],[6.276973,46.215522],[6.294679,46.225154],[6.310282,46.243975],[6.309421,46.250077],[6.305695,46.251368],[6.309755,46.256225],[6.295016,46.25606],[6.293924,46.259528],[6.296595,46.263279],[6.29486,46.264592],[6.278703,46.251264],[6.266785,46.247693],[6.260151,46.251679],[6.261671,46.254561],[6.24985,46.262197],[6.237582,46.277554],[6.238001,46.282126],[6.252968,46.290426],[6.248578,46.294254],[6.250158,46.296425],[6.246973,46.300015],[6.249023,46.301897],[6.21955,46.311884],[6.252969,46.360421],[6.335202,46.403716],[6.425632,46.415807],[6.519117,46.456368],[6.68187,46.454333],[6.821069,46.427157],[6.801925,46.388892],[6.801961,46.385842],[6.806415,46.382961],[6.805428,46.378413],[6.792671,46.367587],[6.780708,46.366532],[6.771444,46.361024],[6.771018,46.353769],[6.784517,46.336833],[6.784314,46.332803],[6.796392,46.333002],[6.800371,46.320043],[6.807037,46.320749],[6.819809,46.315568],[6.830276,46.306129],[6.828102,46.302505],[6.829958,46.300178],[6.834775,46.299799],[6.847367,46.289876],[6.854352,46.292523],[6.857783,46.291298],[6.864936,46.280196],[6.858901,46.273879],[6.860186,46.266231],[6.854451,46.259297],[6.855414,46.255206],[6.839795,46.248221],[6.837151,46.240799],[6.830651,46.234392],[6.821206,46.232315],[6.821589,46.223119],[6.809878,46.213836],[6.803546,46.204609],[6.812594,46.181545],[6.806957,46.178521],[6.805522,46.172745],[6.791718,46.162933],[6.790266,46.154012],[6.794605,46.147586],[6.796538,46.13868],[6.798896,46.135698],[6.807229,46.13652],[6.815114,46.129266],[6.838189,46.132949],[6.842018,46.131979],[6.844358,46.128353],[6.851743,46.126588],[6.873641,46.125954],[6.88243,46.12288],[6.890711,46.125564],[6.899934,46.123879],[6.893129,46.113614],[6.895142,46.108149],[6.882218,46.095162],[6.89189,46.085125],[6.888142,46.079098],[6.891799,46.07374],[6.880286,46.069281],[6.871726,46.05115],[6.878428,46.046112],[6.891271,46.042694],[6.894799,46.0481],[6.909637,46.050754],[6.924588,46.065244],[6.93732,46.064282],[6.935049,46.055965],[6.943928,46.050611],[6.95014,46.051593],[6.962888,46.030432],[6.966527,46.03115],[6.971018,46.025529],[6.981319,46.019571],[6.984983,46.004605],[7.00058,45.998929],[7.005375,46.001251],[7.010542,45.997358],[7.01221,45.98726],[7.0199,45.983908],[7.023623,45.979052],[7.021476,45.976374],[7.010147,45.97323],[7.008489,45.96903],[7.017428,45.960424],[7.037438,45.954874],[7.038563,45.945517],[7.03573,45.938305],[7.042655,45.92968],[7.043734,45.92316],[7.053091,45.915604],[7.060568,45.91339],[7.06448,45.909277],[7.064204,45.900078],[7.076605,45.895182],[7.076425,45.890297],[7.080088,45.885138],[7.095432,45.875863],[7.092082,45.872065],[7.101139,45.859279],[7.118453,45.859442],[7.132281,45.867441],[7.135196,45.872673],[7.153541,45.879253],[7.164146,45.87681],[7.161591,45.871629],[7.175322,45.862904],[7.178976,45.863666],[7.190602,45.858679],[7.196489,45.86026],[7.20081,45.863081],[7.197641,45.870322],[7.200117,45.875513],[7.2157,45.883872],[7.216381,45.888801],[7.225816,45.889751],[7.228309,45.891998],[7.239835,45.889956],[7.249485,45.893133],[7.253094,45.888505],[7.256832,45.888156],[7.271474,45.899968],[7.276888,45.900735],[7.285276,45.915673],[7.294434,45.92182],[7.301818,45.917152],[7.316299,45.916522],[7.318087,45.911644],[7.323903,45.91021],[7.344302,45.91524],[7.356462,45.910642],[7.356455,45.907201],[7.361212,45.903305],[7.366067,45.904138],[7.382386,45.896452],[7.386333,45.897146],[7.397095,45.904762],[7.401752,45.911513],[7.410833,45.908639],[7.427137,45.915452],[7.444371,45.931601],[7.456407,45.932416],[7.458726,45.935522],[7.469556,45.933793],[7.474726,45.935835],[7.47138,45.947194],[7.477667,45.952271],[7.493438,45.955688],[7.499185,45.962418],[7.507531,45.957967],[7.51806,45.96269],[7.527977,45.956493],[7.538433,45.954945],[7.542717,45.956963],[7.54658,45.963035],[7.541477,45.976166],[7.545698,45.983766],[7.550133,45.986556],[7.561996,45.985687],[7.568474,45.987711],[7.578607,45.986012],[7.581702,45.974376],[7.588631,45.970504],[7.610347,45.969345],[7.619581,45.972377],[7.639537,45.970112],[7.656997,45.976563],[7.664273,45.975658],[7.677052,45.965078],[7.67832,45.958836],[7.681015,45.956999],[7.698821,45.954498],[7.709878,45.948095],[7.70732,45.934894],[7.711273,45.932908],[7.712673,45.928227],[7.720479,45.92379],[7.735092,45.923972],[7.73687,45.928298],[7.745828,45.934878],[7.74775,45.941008],[7.769267,45.937117],[7.776559,45.931066],[7.790812,45.924948],[7.793983,45.92],[7.799517,45.917126],[7.821764,45.92696],[7.836719,45.921724],[7.8585,45.920869],[7.864075,45.91675],[7.866337,45.919572],[7.873072,45.920465],[7.877051,45.927195],[7.868408,45.936713],[7.870373,45.947363],[7.877132,45.949048],[7.878894,45.95428],[7.874946,45.958069],[7.88181,45.964008],[7.877424,45.97386],[7.893848,45.978635],[7.908679,45.996937],[7.957335,45.996073],[7.977113,45.999454],[7.989088,45.995932],[7.993937,45.999874],[8.001084,46.012211],[8.012412,46.01197],[8.013247,46.015864],[8.010758,46.018854],[8.0175,46.024704],[8.011891,46.03121],[8.022052,46.038965],[8.035414,46.044045],[8.023873,46.062984],[8.024563,46.067545],[8.021661,46.069366],[8.02253,46.074709],[8.029099,46.080922],[8.029584,46.089601],[8.033901,46.095251],[8.034763,46.100836],[8.054309,46.101296],[8.069219,46.105996],[8.081797,46.10545],[8.108233,46.111629],[8.113807,46.117439],[8.115415,46.130346],[8.125187,46.135272],[8.144389,46.136823],[8.155344,46.147631],[8.149741,46.156938],[8.149878,46.162503],[8.158581,46.174064],[8.165284,46.176915],[8.165509,46.182227],[8.153294,46.191103],[8.151392,46.202821],[8.143525,46.211595],[8.138877,46.226148],[8.127317,46.228277],[8.120478,46.236032],[8.115327,46.236003],[8.111517,46.241143],[8.110154,46.249505],[8.101617,46.249469],[8.10135,46.252413],[8.087739,46.253763],[8.082613,46.256538],[8.080411,46.260629],[8.086057,46.262114],[8.085927,46.266618],[8.100497,46.273701],[8.105455,46.279647],[8.113563,46.281143],[8.120856,46.291874],[8.128856,46.294754],[8.137563,46.301767],[8.147001,46.301537],[8.161421,46.295884],[8.178897,46.29739],[8.194437,46.303444],[8.19875,46.302251],[8.212011,46.309277],[8.21124,46.312589],[8.214927,46.316228],[8.214653,46.319662],[8.225069,46.326411],[8.221612,46.330246],[8.225023,46.33286],[8.223995,46.334448],[8.235423,46.340364],[8.250042,46.340758],[8.252943,46.346441],[8.262883,46.345966],[8.259927,46.348662],[8.265879,46.351844],[8.265034,46.357109],[8.260742,46.360475],[8.263772,46.364023],[8.273074,46.366862],[8.284282,46.363631],[8.289793,46.369138],[8.300013,46.374075],[8.312899,46.377066],[8.314946,46.383949],[8.318741,46.386126],[8.314156,46.389825],[8.317292,46.394],[8.315732,46.398966],[8.309672,46.404025],[8.303547,46.40245],[8.288933,46.40811],[8.298948,46.414246],[8.298896,46.417438],[8.307491,46.425851],[8.314963,46.423632],[8.32544,46.425714],[8.352463,46.441643],[8.355761,46.446963],[8.366935,46.451922],[8.392958,46.451576],[8.408417,46.458737],[8.417099,46.458763],[8.433863,46.463777],[8.445719,46.463716],[8.453151,46.458166],[8.452797,46.455351],[8.46199,46.450707],[8.462393,46.445138],[8.465944,46.444366],[8.463979,46.439201],[8.457532,46.434761],[8.460759,46.428399],[8.456869,46.423179],[8.468315,46.411744],[8.463053,46.404868],[8.471171,46.395923],[8.460837,46.386676],[8.466512,46.380056],[8.466812,46.368317],[8.470234,46.362552],[8.461561,46.353257],[8.464537,46.347233],[8.463289,46.336813],[8.465356,46.333762],[8.460415,46.328409],[8.455655,46.327251],[8.453846,46.321262],[8.443721,46.319494],[8.441792,46.310137],[8.43912,46.30805],[8.440533,46.304119],[8.427739,46.298301],[8.433994,46.291818],[8.436304,46.285666],[8.44977,46.274324],[8.45588,46.263755],[8.448491,46.261395],[8.44789,46.25802],[8.442276,46.254152],[8.444526,46.248877],[8.464106,46.244551],[8.466555,46.235457],[8.470239,46.232323],[8.492382,46.229102],[8.515136,46.220158],[8.521686,46.22185],[8.532443,46.218282],[8.540475,46.197813],[8.553591,46.192034],[8.554042,46.186144],[8.563696,46.183945],[8.569849,46.1769],[8.573643,46.16431],[8.578219,46.161661],[8.587114,46.161649],[8.588114,46.156569],[8.603175,46.155332],[8.603733,46.153601],[8.60017,46.153297],[8.599982,46.149601],[8.593058,46.145985],[8.592726,46.142861],[8.609705,46.132879],[8.611835,46.121659],[8.647577,46.12349],[8.657707,46.112689],[8.670272,46.108833],[8.679503,46.11038],[8.686261,46.102063],[8.696572,46.102014],[8.713991,46.097232],[8.724265,46.110208],[8.742343,46.122311],[8.760018,46.101569],[8.768244,46.100748],[8.783033,46.094172],[8.79978,46.094699],[8.806039,46.101276],[8.815291,46.097315],[8.833768,46.082851],[8.847515,46.07575],[8.852109,46.075636],[8.854588,46.061585],[8.844184,46.048505],[8.834532,46.051365],[8.828486,46.046533],[8.835465,46.043792],[8.832712,46.04056],[8.83003,46.041605],[8.827148,46.032273],[8.819677,46.025488],[8.805914,46.021929],[8.793088,46.008102],[8.785883,45.989077],[8.790828,45.988587],[8.792424,45.991891],[8.795773,45.992068],[8.813831,45.990973],[8.820141,45.987412],[8.831322,45.988016],[8.842697,45.981471],[8.843428,45.977608],[8.849633,45.972872],[8.864733,45.965458],[8.868298,45.960619],[8.878212,45.956642],[8.893657,45.958981],[8.898596,45.94626],[8.893497,45.937388],[8.893314,45.931182],[8.907446,45.917791],[8.914286,45.917801],[8.924126,45.905638],[8.924936,45.900855],[8.921535,45.89577],[8.931552,45.885814],[8.933774,45.870333],[8.937026,45.867306],[8.942059,45.870343],[8.945301,45.866979],[8.932536,45.860962],[8.914225,45.842229],[8.912146,45.830445],[8.920475,45.834197],[8.929034,45.833376],[8.932974,45.839012],[8.93909,45.841273],[8.956241,45.843384],[8.962017,45.83903],[8.96146,45.836372],[8.969983,45.832354],[8.974207,45.83304],[8.976172,45.836634],[8.981659,45.835739],[8.986669,45.83852],[8.989888,45.835323],[8.997487,45.834945],[8.993748,45.822024],[8.998435,45.822916],[9.017332,45.817959],[9.022116,45.821866],[9.031397,45.820842],[9.034461,45.823017],[9.030931,45.82469],[9.037858,45.835467],[9.035708,45.841018],[9.050774,45.852212],[9.048235,45.853183],[9.051826,45.854433],[9.049158,45.862611],[9.053697,45.867992],[9.054787,45.873552],[9.066386,45.87539],[9.071428,45.881741],[9.07784,45.885067],[9.079459,45.888657],[9.077954,45.892028],[9.081643,45.891796],[9.088803,45.896897],[9.089,45.900654],[9.086841,45.902205],[9.076931,45.899299],[9.076575,45.911417],[9.072639,45.912837],[9.067808,45.910634],[9.068192,45.91291],[9.059062,45.916484],[9.059899,45.920939],[9.049081,45.92042],[9.042714,45.927502],[9.019357,45.928368],[9.022467,45.937146],[9.012198,45.943784],[9.017124,45.94901],[9.013963,45.960548],[8.994025,45.966552],[8.988992,45.970343],[8.988473,45.972834],[8.990495,45.971229],[8.995822,45.972835],[8.995291,45.98049],[9.007347,45.9803],[9.011152,45.983175],[9.011359,45.987905],[9.018079,45.987653],[9.022503,45.989543],[9.022891,45.992756],[9.02846,45.993626],[9.02451,46.000763],[9.022542,46.016856],[9.007593,46.029799],[9.009524,46.037288],[9.016887,46.043098],[9.017205,46.049735],[9.022671,46.052694],[9.028762,46.053018],[9.05023,46.062364],[9.060415,46.060659],[9.077135,46.064124],[9.079072,46.075916],[9.084195,46.078741],[9.089615,46.087016],[9.072504,46.118102],[9.089977,46.125577],[9.099776,46.126709],[9.104708,46.131965],[9.112208,46.134705],[9.121498,46.134806],[9.134484,46.15331],[9.156495,46.162117],[9.161221,46.170723],[9.183412,46.170195],[9.194646,46.1792],[9.194774,46.183955],[9.197987,46.186983],[9.194837,46.193623],[9.2022,46.208409],[9.214288,46.210781],[9.218896,46.214431],[9.219979,46.220868],[9.22293,46.22396],[9.220964,46.229104],[9.23479,46.233332],[9.245836,46.232169],[9.248423,46.233768],[9.2482,46.247333],[9.251381,46.251013],[9.248998,46.255879],[9.253103,46.26198],[9.250471,46.26651],[9.256982,46.269373],[9.259281,46.272954],[9.258824,46.278484],[9.268309,46.282172],[9.271826,46.289269],[9.284882,46.297047],[9.281569,46.309356],[9.285059,46.314431],[9.295089,46.317753],[9.295311,46.323253],[9.29936,46.32754],[9.293941,46.33106],[9.292116,46.3362],[9.299867,46.343602],[9.296087,46.349106],[9.297759,46.351868],[9.296293,46.355584],[9.282583,46.358045],[9.278754,46.366572],[9.276071,46.367768],[9.277125,46.371809],[9.275125,46.373737],[9.284371,46.385085],[9.278391,46.389535],[9.275834,46.394893],[9.282026,46.401577],[9.278882,46.40339],[9.282535,46.404958],[9.280252,46.414162],[9.277008,46.415001],[9.275367,46.419518],[9.26363,46.420501],[9.261649,46.424298],[9.248187,46.433232],[9.247002,46.446794],[9.266275,46.451376],[9.278184,46.4617],[9.273442,46.466011],[9.277395,46.479203],[9.274213,46.483691],[9.278735,46.487503],[9.278858,46.491598],[9.283389,46.497016],[9.290553,46.497225],[9.311119,46.504129],[9.337073,46.506001],[9.33908,46.503804],[9.355029,46.504267],[9.363694,46.509309],[9.373358,46.503943],[9.373244,46.499366],[9.369696,46.49768],[9.368487,46.494094],[9.376363,46.484661],[9.38523,46.482385],[9.389782,46.473088],[9.411658,46.466925],[9.424115,46.476127],[9.426281,46.485733],[9.424691,46.488746],[9.43419,46.497908],[9.463558,46.508872],[9.461065,46.505487],[9.462714,46.498031],[9.461035,46.484844],[9.449095,46.484377],[9.449701,46.47998],[9.462872,46.480496],[9.465589,46.4695],[9.459177,46.463087],[9.460701,46.442266],[9.457081,46.436518],[9.454434,46.42078],[9.455867,46.41627],[9.461719,46.41179],[9.469005,46.388632],[9.464989,46.383737],[9.461183,46.383418],[9.463194,46.380204],[9.461086,46.375989],[9.496414,46.364323],[9.50047,46.356068],[9.508572,46.351398],[9.511485,46.336602],[9.514232,46.332342],[9.51672,46.332603],[9.518489,46.327097],[9.533219,46.312689],[9.549575,46.302338],[9.555205,46.306243],[9.560157,46.306164],[9.56236,46.302571],[9.578177,46.295445],[9.610363,46.294579],[9.618686,46.287364],[9.6423,46.286902],[9.662122,46.296654],[9.668944,46.296028],[9.6705,46.29993],[9.676969,46.303125],[9.681586,46.297026],[9.687385,46.293926],[9.702018,46.290826],[9.714507,46.292923],[9.718153,46.306277],[9.724423,46.309863],[9.726002,46.313508],[9.725906,46.319677],[9.717357,46.323516],[9.727523,46.332686],[9.722959,46.340751],[9.736934,46.350918],[9.743514,46.351799],[9.747387,46.347755],[9.757594,46.344519],[9.765169,46.337423],[9.77765,46.334924],[9.78475,46.340803],[9.818314,46.349677],[9.832665,46.360973],[9.845718,46.361747],[9.849148,46.364378],[9.85617,46.362742],[9.865493,46.364646],[9.868205,46.362361],[9.880586,46.368354],[9.883654,46.373407],[9.906798,46.380878],[9.9169,46.370333],[9.922951,46.370638],[9.92518,46.365984],[9.931103,46.368002],[9.929988,46.37158],[9.934469,46.374787],[9.957957,46.37894],[9.955718,46.373617],[9.964519,46.363765],[9.98511,46.351644],[9.996381,46.351142],[9.99459,46.346653],[9.995957,46.342223],[9.985461,46.334079],[9.979944,46.323128],[9.994694,46.313883],[10.000066,46.313189],[9.999748,46.309839],[9.996249,46.307314],[10.000759,46.301558],[9.991737,46.296256],[9.99593,46.284925],[10.03124,46.277036],[10.055534,46.265835],[10.05802,46.258216],[10.056108,46.256961],[10.058763,46.255738],[10.060649,46.248262],[10.053408,46.241257],[10.053708,46.235827],[10.043808,46.229717],[10.058612,46.224974],[10.063082,46.220194],[10.070851,46.217152],[10.081087,46.225452],[10.088498,46.227805],[10.103485,46.22857],[10.123284,46.223787],[10.132323,46.224877],[10.145951,46.230483],[10.150873,46.239642],[10.174933,46.254612],[10.176523,46.258276],[10.172014,46.26661],[10.163351,46.271453],[10.161318,46.276851],[10.16249,46.282321],[10.154506,46.285366],[10.156637,46.289281],[10.154282,46.292784],[10.138924,46.299569],[10.138823,46.304637],[10.116608,46.314082],[10.113005,46.323292],[10.104401,46.333622],[10.105959,46.342177],[10.109234,46.34604],[10.108445,46.352327],[10.113117,46.352529],[10.129119,46.360882],[10.125994,46.369822],[10.128467,46.37418],[10.127363,46.377405],[10.142565,46.386224],[10.155774,46.384913],[10.16195,46.38744],[10.163991,46.390685],[10.162101,46.404233],[10.166726,46.407593],[10.161133,46.415387],[10.149386,46.41282],[10.1472,46.423179],[10.143009,46.428324],[10.132922,46.429093],[10.129104,46.431752],[10.11922,46.429227],[10.11723,46.426032],[10.107913,46.428285],[10.10073,46.421346],[10.080173,46.421085],[10.080183,46.425603],[10.077153,46.42819],[10.064392,46.425871],[10.061496,46.427434],[10.058009,46.432021],[10.056278,46.440868],[10.052582,46.439699],[10.041908,46.442865],[10.039148,46.446982],[10.042468,46.448995],[10.043994,46.455076],[10.052491,46.460406],[10.054464,46.46466],[10.051523,46.467755],[10.051463,46.472211],[10.042827,46.480031],[10.04849,46.487812],[10.044809,46.493192],[10.04909,46.499596],[10.045101,46.502061],[10.042268,46.510045],[10.05153,46.513355],[10.053991,46.522665],[10.050434,46.528966],[10.053534,46.531687],[10.045625,46.535632],[10.043891,46.540466],[10.046766,46.544044],[10.061415,46.545704],[10.068685,46.551182],[10.07171,46.559031],[10.082334,46.563493],[10.085393,46.567118],[10.079743,46.57131],[10.078673,46.575123],[10.095694,46.577351],[10.100675,46.582722],[10.101161,46.589196],[10.09703,46.593485],[10.097634,46.597775],[10.101286,46.601016],[10.098854,46.605863],[10.102353,46.610736],[10.127623,46.605103],[10.136332,46.607599],[10.137361,46.61074],[10.162418,46.615705],[10.192765,46.625934],[10.1934,46.623135],[10.215319,46.616939],[10.224132,46.629129],[10.239309,46.635353],[10.244788,46.622167],[10.259084,46.610216],[10.241839,46.5916],[10.246072,46.575007],[10.254134,46.571244],[10.263818,46.577147],[10.269335,46.577693],[10.276703,46.572587],[10.287419,46.570396],[10.289495,46.564642],[10.295994,46.558877],[10.294428,46.551951],[10.296071,46.549974],[10.308149,46.549427],[10.31143,46.546687],[10.325468,46.551732],[10.338189,46.542726],[10.350227,46.549423],[10.351867,46.555879],[10.375611,46.552626],[10.39704,46.543917],[10.418238,46.551311],[10.436687,46.53739],[10.4528,46.530682],[10.458577,46.536549],[10.459111,46.541318],[10.471465,46.542697],[10.471097,46.548385],[10.477918,46.557414],[10.474065,46.562714],[10.474676,46.566677],[10.48479,46.577537],[10.483391,46.580931],[10.487786,46.589559],[10.483784,46.592155],[10.487362,46.598371],[10.484437,46.60508],[10.491144,46.611074],[10.492063,46.615386],[10.484265,46.61742],[10.462564,46.63305],[10.446075,46.641271],[10.409126,46.635058],[10.402287,46.636812],[10.399858,46.638584],[10.401755,46.640708],[10.400398,46.645762],[10.396219,46.652936],[10.391995,46.6552],[10.390895,46.668111],[10.39251,46.671597],[10.381821,46.684306],[10.383569,46.687282],[10.393473,46.689304],[10.403326,46.705501],[10.410007,46.705478],[10.416039,46.70902],[10.415325,46.71223],[10.41877,46.719136],[10.414475,46.720568],[10.409028,46.728205],[10.400814,46.733845],[10.435543,46.752676],[10.44172,46.752042],[10.442682,46.753875],[10.444018,46.762373],[10.440483,46.77401],[10.434406,46.778237],[10.433702,46.781924],[10.422718,46.788242],[10.426642,46.789406],[10.426738,46.794236],[10.429556,46.79678],[10.447559,46.800773],[10.457689,46.816049],[10.455804,46.821804],[10.460428,46.82454],[10.456602,46.83019],[10.460092,46.834739],[10.466508,46.835859],[10.466468,46.839362],[10.463847,46.841198],[10.471824,46.848702],[10.468007,46.862107],[10.471264,46.872957],[10.46923,46.881099],[10.464696,46.884275],[10.475091,46.894287],[10.47854,46.910591],[10.486217,46.915456],[10.485281,46.918623],[10.488305,46.92628],[10.485294,46.931444],[10.489348,46.937785],[10.476197,46.94103],[10.468821,46.947096],[10.455478,46.952879],[10.449153,46.952314],[10.426384,46.95732],[10.422013,46.960778],[10.427073,46.971168],[10.426584,46.975681],[10.412502,46.982643],[10.40218,46.990854],[10.398314,46.997138],[10.384625,46.999971],[10.372051,46.990668],[10.354992,46.992359],[10.346516,46.989586],[10.344789,46.983064],[10.339991,46.981305],[10.340716,46.978373],[10.329496,46.964268],[10.327826,46.953974],[10.309361,46.950199],[10.306125,46.9403],[10.317171,46.930952],[10.316062,46.925177],[10.300799,46.924654],[10.296878,46.91995],[10.29104,46.92326],[10.266886,46.928829],[10.240595,46.93137],[10.242023,46.918828],[10.237043,46.915701],[10.233309,46.90164],[10.225728,46.895939],[10.227613,46.890205],[10.234841,46.884681],[10.230848,46.869435],[10.232676,46.866292],[10.219239,46.867283],[10.203834,46.864613],[10.193669,46.866441],[10.183506,46.859005],[10.182016,46.85551],[10.171767,46.853663],[10.169073,46.850658],[10.162701,46.850989],[10.157421,46.847859],[10.147082,46.851409],[10.13942,46.847378],[10.123094,46.848484],[10.119934,46.847377],[10.119133,46.844169],[10.105448,46.840854],[10.091964,46.851425],[10.092664,46.858049],[10.087438,46.861193],[10.059571,46.860774],[10.051208,46.863941],[10.051943,46.876743],[10.042448,46.880439],[10.039319,46.885806],[10.032186,46.887995],[10.026478,46.895806],[10.01783,46.901615],[10.00592,46.8988],[9.990121,46.902408],[9.982444,46.906198],[9.981792,46.911918],[9.977877,46.915882],[9.966577,46.912222],[9.95908,46.916024],[9.946132,46.912349],[9.937236,46.91331],[9.921541,46.918823],[9.91232,46.926054],[9.906331,46.9253],[9.894495,46.931644],[9.876137,46.934628],[9.880716,46.940111],[9.87658,46.940705],[9.874887,46.95039],[9.878729,46.957066],[9.87074,46.963209],[9.875592,46.967496],[9.875709,46.973653],[9.884558,46.980848],[9.883101,46.983267],[9.884825,46.985465],[9.892312,46.990359],[9.888786,47.000727],[9.873265,47.006348],[9.870704,47.009652],[9.871159,47.013058],[9.880359,47.017224],[9.876255,47.021227],[9.859754,47.02321],[9.852737,47.016413],[9.836127,47.012531],[9.823538,47.019859],[9.807572,47.023562],[9.801408,47.029087],[9.791897,47.031686],[9.784924,47.038485],[9.748087,47.036922],[9.741857,47.042674],[9.718219,47.043373],[9.707018,47.048044],[9.705679,47.050349],[9.708585,47.051663],[9.707604,47.053806],[9.697568,47.052387],[9.688199,47.055225],[9.682122,47.058842],[9.681847,47.062096],[9.658222,47.05818],[9.645065,47.059773],[9.641332,47.053921],[9.632679,47.051251],[9.617208,47.053624],[9.603479,47.061772],[9.582166,47.052702],[9.572923,47.052761],[9.558949,47.048427],[9.554514,47.050301],[9.551627,47.058841],[9.539761,47.065146],[9.516547,47.060087],[9.512081,47.056816],[9.500004,47.057126],[9.499541,47.054153],[9.491316,47.05625],[9.485756,47.04909],[9.481896,47.052539],[9.482283,47.056117],[9.4769,47.0546],[9.475795,47.05175],[9.472386,47.065027],[9.513537,47.085634],[9.519319,47.096554],[9.511843,47.132016],[9.507209,47.142381],[9.491307,47.16297],[9.485848,47.181441],[9.489762,47.196492],[9.499609,47.211279],[9.501649,47.220173],[9.520459,47.24396],[9.530119,47.26249],[9.530955,47.271007],[9.54616,47.280014],[9.556428,47.298351],[9.581612,47.31116],[9.58815,47.317402],[9.599464,47.34512],[9.605766,47.351857],[9.624463,47.366143],[9.660422,47.370128],[9.670613,47.377791],[9.673848,47.383873],[9.672458,47.392619],[9.660091,47.397544],[9.654377,47.404397],[9.651621,47.404624],[9.650299,47.421075],[9.644372,47.434126],[9.646602,47.439667],[9.65799,47.447787],[9.658979,47.452201],[9.645679,47.455652],[9.622381,47.457456],[9.60915,47.470521],[9.606622,47.46981],[9.603042,47.462078],[9.595074,47.463367],[9.581874,47.483066],[9.561996,47.496295],[9.55872,47.541893],[9.495603,47.551455],[9.394713,47.620326],[9.25656,47.658708],[9.214831,47.655096],[9.187102,47.657451],[9.17597,47.653987],[9.175492,47.655773],[9.170312,47.654961],[9.157837,47.665763],[9.150776,47.667641],[9.139215,47.664167],[9.117992,47.668703],[9.094202,47.679422],[9.075894,47.678619],[9.023379,47.686852],[8.980145,47.673508],[8.974849,47.668983],[8.941517,47.656279],[8.893844,47.648335],[8.88355,47.653942],[8.8754,47.654949],[8.873823,47.669494],[8.867889,47.675888],[8.860579,47.680306],[8.850563,47.681172],[8.851092,47.685587],[8.857717,47.692648],[8.850811,47.694655],[8.851534,47.697618],[8.858081,47.69874],[8.860622,47.696259],[8.863224,47.698426],[8.866305,47.696382],[8.863281,47.692405],[8.873403,47.693965],[8.876149,47.696849],[8.869693,47.701866],[8.872741,47.704075],[8.866604,47.705472],[8.848343,47.703369],[8.845767,47.711154],[8.843182,47.712155],[8.833592,47.714557],[8.825532,47.711],[8.819053,47.712776],[8.826254,47.717865],[8.818534,47.717645],[8.812706,47.723765],[8.80481,47.724517],[8.812179,47.730423],[8.808546,47.731211],[8.806675,47.738278],[8.796566,47.73455],[8.799199,47.727118],[8.79182,47.728797],[8.78484,47.727348],[8.780774,47.721662],[8.776314,47.722724],[8.77735,47.720857],[8.774797,47.719071],[8.769758,47.718449],[8.772866,47.713224],[8.769344,47.706845],[8.793968,47.704239],[8.797595,47.702849],[8.797602,47.697209],[8.806336,47.696512],[8.810112,47.693353],[8.800107,47.69185],[8.793531,47.680104],[8.796057,47.675337],[8.788584,47.675479],[8.757781,47.689376],[8.728023,47.692761],[8.727724,47.700438],[8.736308,47.716327],[8.724827,47.721281],[8.717942,47.72162],[8.711157,47.730138],[8.714607,47.738585],[8.720236,47.740998],[8.723625,47.745649],[8.741437,47.748184],[8.741136,47.751984],[8.728961,47.75796],[8.730807,47.759608],[8.727326,47.762267],[8.71407,47.765399],[8.701467,47.760867],[8.69513,47.755711],[8.688708,47.75836],[8.68359,47.770599],[8.688626,47.77352],[8.683211,47.777304],[8.681032,47.786605],[8.676241,47.785763],[8.667583,47.787696],[8.66232,47.79176],[8.657417,47.791744],[8.660313,47.796321],[8.656862,47.800441],[8.649605,47.798461],[8.645749,47.790711],[8.645459,47.787219],[8.649799,47.783301],[8.648111,47.774063],[8.652969,47.773398],[8.645348,47.768525],[8.647569,47.766961],[8.644477,47.764305],[8.640568,47.76434],[8.631669,47.758186],[8.619445,47.767657],[8.62337,47.777275],[8.618785,47.778143],[8.615094,47.783967],[8.615767,47.787143],[8.620505,47.788945],[8.622152,47.794856],[8.617912,47.796039],[8.618602,47.798323],[8.611424,47.801898],[8.60086,47.803014],[8.592862,47.798705],[8.587745,47.802654],[8.575396,47.799598],[8.573099,47.806067],[8.568881,47.807227]],[[8.701286,47.71519],[8.704644,47.713427],[8.711812,47.70174],[8.711395,47.696329],[8.717627,47.694932],[8.717871,47.69069],[8.707384,47.689611],[8.690255,47.695391],[8.670441,47.684875],[8.663411,47.685784],[8.664052,47.688148],[8.659689,47.689484],[8.658607,47.691339],[8.668386,47.692089],[8.676406,47.698088],[8.673576,47.704886],[8.666023,47.70786],[8.664664,47.713362],[8.671378,47.711003],[8.681336,47.712415],[8.679932,47.710557],[8.686333,47.70857],[8.690324,47.70945],[8.689679,47.711714],[8.701286,47.71519]],[[8.967077,45.984149],[8.977564,45.982565],[8.976328,45.97586],[8.97936,45.971038],[8.975632,45.961632],[8.958543,45.964816],[8.967077,45.984149]]]}}]}
